{"type": "FeatureCollection", "features": [{"type": "Feature", "geometry": {"type": "Point", "coordinates": [-73.8868, 40.81773]}, "properties": {"id": "NY-001", "name": "Hunts Point Logistics Hub", "floors": 3, "address": "1924 Marcus Blvd", "city": "Bronx", "state": "NY", "zip": "10474", "propertyType": "Manufacturing", "floorArea": 80000.0, "raw": {"en1Imported": 796282, "en1Generated": 102624, "en1Exported": 27052, "eui": 9.953525, "scope1": 383.8, "scope2Location": 143.33076, "scope2Market": 129.5, "scope3": 17444.1, "wt1": 1980000, "wt2": 19186, "ws1": 0.539}, "cert": {"bc11": "LEED BD+C Certified", "bc12": null, "bc2": null}, "energyStarScore": 89, "twelveMonthDataComplete": true, "energyStarEligible": true, "dataCoverage": 0.815, "confidenceTier": "Estimated", "dataSource": "Landlord submeter", "lastUpdated": "2026-06-23", "metrics": {"ghg": {"unit": "mtCO2e", "direction": "Lower is better", "baselineValue": 657.4, "baselineYear": 2019, "currentValue": 527.13076, "targetValue": 394.44, "targetYear": 2030, "progressPct": 0.495395649528445, "varianceVsTarget": 132.69076, "sheetStatus": "At Risk", "p": 0.495396, "band": "At Risk"}, "eui": {"unit": "kWh/sq ft", "direction": "Lower is better", "baselineValue": 11.8, "baselineYear": 2019, "currentValue": 9.953525, "targetValue": 9.44, "targetYear": 2030, "progressPct": 0.782404661016949, "varianceVsTarget": 0.513525, "sheetStatus": "On Track", "p": 0.782405, "band": "On Track"}, "water": {"unit": "gal", "direction": "Lower is better", "baselineValue": 306816.4, "baselineYear": 2019, "currentValue": 1980000.0, "targetValue": 260793.94, "targetYear": 2030, "progressPct": -36.3558054, "varianceVsTarget": 1719206.06, "sheetStatus": "Off Track", "p": 0.0, "band": "Off Track"}, "waste": {"unit": "%", "direction": "Higher is better", "baselineValue": 0.342, "baselineYear": 2023, "currentValue": 0.539, "targetValue": 0.75, "targetYear": 2028, "progressPct": 0.482843137254902, "varianceVsTarget": -0.211, "sheetStatus": "At Risk", "p": 0.718667, "band": "At Risk"}, "energyStar": {"unit": "1-100", "direction": "Higher is better", "baselineValue": 53.7, "baselineYear": 2023, "currentValue": 89.0, "targetValue": 75.0, "targetYear": 2028, "progressPct": 1.65727699530516, "varianceVsTarget": 14, "sheetStatus": "Target Met", "p": 1.0, "band": "Target Met"}, "coverage": {"unit": "%", "direction": "Higher is better", "baselineValue": 0.465, "baselineYear": 2023, "currentValue": 0.815, "targetValue": 0.75, "targetYear": 2026, "progressPct": 1.2280701754386, "varianceVsTarget": 0.065, "sheetStatus": "Target Met", "p": 1.0, "band": "Target Met"}}, "compliance": {"ll97Applicable": "Yes", "currentEmissions": 527.13076, "limit2024": 407.2, "overCap2024": 119.93076, "fine2024": 32141.44368, "limit2030": 252, "overCap2030": 275.13076, "fine2030": 73735.04368, "ll84FilingStatus": "Filed", "ll84NextDeadline": "2027-05-01", "daysToDeadline": 265, "nonFilingPenaltyRate": 40000, "otherLaws": "LL84, LL88, LL33", "status2024": "Non-Compliant", "status2030": "Non-Compliant"}}}, {"type": "Feature", "geometry": {"type": "Point", "coordinates": [-73.96266, 40.69191]}, "properties": {"id": "NY-002", "name": "Navy Yard Industrial Park - Bldg 1", "floors": 1, "address": "5674 Commerce Dr", "city": "Brooklyn", "state": "NY", "zip": "11205", "propertyType": "Cold Storage", "floorArea": 339000.0, "raw": {"en1Imported": 4309477, "en1Generated": 222394, "en1Exported": 78782, "eui": 12.7123215339233, "scope1": 48.4, "scope2Location": 775.70586, "scope2Market": 732.4, "scope3": 274875.3, "wt1": 1950469, "wt2": 0, "ws1": 0.422}, "cert": {"bc11": null, "bc12": "LEED O+M Silver", "bc2": null}, "energyStarScore": 42, "twelveMonthDataComplete": true, "energyStarEligible": false, "dataCoverage": 0.637, "confidenceTier": "Verified", "dataSource": "Landlord submeter", "lastUpdated": "2026-07-19", "metrics": {"ghg": {"unit": "mtCO2e", "direction": "Lower is better", "baselineValue": 985, "baselineYear": 2019, "currentValue": 824.10586, "targetValue": 591.0, "targetYear": 2030, "progressPct": 0.40836076142132, "varianceVsTarget": 233.10586, "sheetStatus": "At Risk", "p": 0.408361, "band": "At Risk"}, "eui": {"unit": "kWh/sq ft", "direction": "Lower is better", "baselineValue": 15.8, "baselineYear": 2019, "currentValue": 12.7123215339233, "targetValue": 12.64, "targetYear": 2030, "progressPct": 0.977113438631866, "varianceVsTarget": 0.0723215339233025, "sheetStatus": "On Track", "p": 0.977113, "band": "On Track"}, "water": {"unit": "gal", "direction": "Lower is better", "baselineValue": 2312124.4, "baselineYear": 2019, "currentValue": 1950469.0, "targetValue": 1965305.74, "targetYear": 2030, "progressPct": 1.04277953210476, "varianceVsTarget": -14836.7399999998, "sheetStatus": "Target Met", "p": 1.0, "band": "Target Met"}, "waste": {"unit": "%", "direction": "Higher is better", "baselineValue": 0.281, "baselineYear": 2023, "currentValue": 0.422, "targetValue": 0.75, "targetYear": 2028, "progressPct": 0.300639658848614, "varianceVsTarget": -0.328, "sheetStatus": "Off Track", "p": 0.562667, "band": "At Risk"}, "energyStar": {"unit": "1-100", "direction": "Higher is better", "baselineValue": 26, "baselineYear": 2023, "currentValue": 42.0, "targetValue": 75.0, "targetYear": 2028, "progressPct": 0.326530612244898, "varianceVsTarget": -33, "sheetStatus": "Off Track", "p": 0.56, "band": "At Risk"}, "coverage": {"unit": "%", "direction": "Higher is better", "baselineValue": 0.39, "baselineYear": 2023, "currentValue": 0.637, "targetValue": 0.75, "targetYear": 2026, "progressPct": 0.686111111111111, "varianceVsTarget": -0.113, "sheetStatus": "At Risk", "p": 0.849333, "band": "On Track"}}, "compliance": {"ll97Applicable": "Yes", "currentEmissions": 824.10586, "limit2024": 993.27, "overCap2024": -169.16414, "fine2024": 0, "limit2030": 616.98, "overCap2030": 207.12586, "fine2030": 55509.73048, "ll84FilingStatus": "Not Filed", "ll84NextDeadline": "2027-05-01", "daysToDeadline": 265, "nonFilingPenaltyRate": 169500, "otherLaws": "LL84, LL88, LL33", "status2024": "Compliant", "status2030": "Non-Compliant"}}}, {"type": "Feature", "geometry": {"type": "Point", "coordinates": [-73.9509, 40.75203]}, "properties": {"id": "NY-003", "name": "LIC Fulfillment Center", "floors": 1, "address": "1407 Corporate Pkwy", "city": "Queens", "state": "NY", "zip": "11101", "propertyType": "Flex Industrial", "floorArea": 293000.0, "raw": {"en1Imported": 4203889, "en1Generated": 0, "en1Exported": 0, "eui": 14.3477440273038, "scope1": 230.9, "scope2Location": 756.70002, "scope2Market": 735.4, "scope3": 253118.3, "wt1": 2025433, "wt2": 0, "ws1": 0.226}, "cert": {"bc11": null, "bc12": null, "bc2": null}, "energyStarScore": 55, "twelveMonthDataComplete": false, "energyStarEligible": false, "dataCoverage": 0.758, "confidenceTier": "Missing", "dataSource": "Landlord submeter", "lastUpdated": "2026-06-20", "metrics": {"ghg": {"unit": "mtCO2e", "direction": "Lower is better", "baselineValue": 1328.6, "baselineYear": 2019, "currentValue": 987.60002, "targetValue": 797.16, "targetYear": 2030, "progressPct": 0.641652830046666, "varianceVsTarget": 190.44002, "sheetStatus": "At Risk", "p": 0.641653, "band": "At Risk"}, "eui": {"unit": "kWh/sq ft", "direction": "Lower is better", "baselineValue": 20, "baselineYear": 2019, "currentValue": 14.3477440273038, "targetValue": 16.0, "targetYear": 2030, "progressPct": 1.41306399317406, "varianceVsTarget": -1.65225597269625, "sheetStatus": "Target Met", "p": 1.0, "band": "Target Met"}, "water": {"unit": "gal", "direction": "Lower is better", "baselineValue": 2583311.9, "baselineYear": 2019, "currentValue": 2025433.0, "targetValue": 2195815.115, "targetYear": 2030, "progressPct": 1.43969942873203, "varianceVsTarget": -170382.115, "sheetStatus": "Target Met", "p": 1.0, "band": "Target Met"}, "waste": {"unit": "%", "direction": "Higher is better", "baselineValue": 0.17, "baselineYear": 2023, "currentValue": 0.226, "targetValue": 0.75, "targetYear": 2028, "progressPct": 0.096551724137931, "varianceVsTarget": -0.524, "sheetStatus": "Off Track", "p": 0.301333, "band": "Off Track"}, "energyStar": {"unit": "1-100", "direction": "Higher is better", "baselineValue": 34.1, "baselineYear": 2023, "currentValue": 55.0, "targetValue": 75.0, "targetYear": 2028, "progressPct": 0.511002444987775, "varianceVsTarget": -20, "sheetStatus": "At Risk", "p": 0.733333, "band": "At Risk"}, "coverage": {"unit": "%", "direction": "Higher is better", "baselineValue": 0.454, "baselineYear": 2023, "currentValue": 0.758, "targetValue": 0.75, "targetYear": 2026, "progressPct": 1.02702702702703, "varianceVsTarget": 0.00800000000000001, "sheetStatus": "Target Met", "p": 1.0, "band": "Target Met"}}, "compliance": {"ll97Applicable": "Yes", "currentEmissions": 987.60002, "limit2024": 823.33, "overCap2024": 164.27002, "fine2024": 44024.36536, "limit2030": 509.82, "overCap2030": 477.78002, "fine2030": 128045.04536, "ll84FilingStatus": "Filed - Late", "ll84NextDeadline": "2027-05-01", "daysToDeadline": 265, "nonFilingPenaltyRate": 146500, "otherLaws": "LL84, LL88, LL33", "status2024": "Non-Compliant", "status2030": "Non-Compliant"}}}, {"type": "Feature", "geometry": {"type": "Point", "coordinates": [-74.112, 40.60714]}, "properties": {"id": "NY-004", "name": "Harbor View Cross-Dock Terminal", "floors": 1, "address": "1016 Industrial Loop", "city": "Staten Island", "state": "NY", "zip": "10314", "propertyType": "Light Industrial", "floorArea": 289000.0, "raw": {"en1Imported": 3935112, "en1Generated": 588599, "en1Exported": 159012, "eui": 13.6163044982699, "scope1": 12.8, "scope2Location": 708.32016, "scope2Market": 703.5, "scope3": 196574.1, "wt1": 3089988, "wt2": 0, "ws1": 0.271}, "cert": {"bc11": null, "bc12": null, "bc2": "ENERGY STAR Certified 2025"}, "energyStarScore": 54, "twelveMonthDataComplete": true, "energyStarEligible": false, "dataCoverage": 0.803, "confidenceTier": "Estimated", "dataSource": "Estimate - prior year carried forward", "lastUpdated": "2026-05-22", "metrics": {"ghg": {"unit": "mtCO2e", "direction": "Lower is better", "baselineValue": 845, "baselineYear": 2019, "currentValue": 721.12016, "targetValue": 507.0, "targetYear": 2030, "progressPct": 0.366508402366864, "varianceVsTarget": 214.12016, "sheetStatus": "Off Track", "p": 0.366508, "band": "Off Track"}, "eui": {"unit": "kWh/sq ft", "direction": "Lower is better", "baselineValue": 16.4, "baselineYear": 2019, "currentValue": 13.6163044982699, "targetValue": 13.12, "targetYear": 2030, "progressPct": 0.848687652966495, "varianceVsTarget": 0.496304498269897, "sheetStatus": "On Track", "p": 0.848688, "band": "On Track"}, "water": {"unit": "gal", "direction": "Lower is better", "baselineValue": 3260679.1, "baselineYear": 2019, "currentValue": 3089988.0, "targetValue": 2771577.235, "targetYear": 2030, "progressPct": 0.3489888553, "varianceVsTarget": 318410.765, "sheetStatus": "Off Track", "p": 0.348989, "band": "Off Track"}, "waste": {"unit": "%", "direction": "Higher is better", "baselineValue": 0.151, "baselineYear": 2023, "currentValue": 0.271, "targetValue": 0.75, "targetYear": 2028, "progressPct": 0.200333889816361, "varianceVsTarget": -0.479, "sheetStatus": "Off Track", "p": 0.361333, "band": "Off Track"}, "energyStar": {"unit": "1-100", "direction": "Higher is better", "baselineValue": 37.6, "baselineYear": 2023, "currentValue": 54.0, "targetValue": 75.0, "targetYear": 2028, "progressPct": 0.438502673796791, "varianceVsTarget": -21, "sheetStatus": "At Risk", "p": 0.72, "band": "At Risk"}, "coverage": {"unit": "%", "direction": "Higher is better", "baselineValue": 0.524, "baselineYear": 2023, "currentValue": 0.803, "targetValue": 0.75, "targetYear": 2026, "progressPct": 1.23451327433628, "varianceVsTarget": 0.0530000000000001, "sheetStatus": "Target Met", "p": 1.0, "band": "Target Met"}}, "compliance": {"ll97Applicable": "Yes", "currentEmissions": 721.12016, "limit2024": 930.58, "overCap2024": -209.45984, "fine2024": 0, "limit2030": 578, "overCap2030": 143.12016, "fine2030": 38356.20288, "ll84FilingStatus": "Filed", "ll84NextDeadline": "2027-05-01", "daysToDeadline": 265, "nonFilingPenaltyRate": 144500, "otherLaws": "LL84, LL88, LL33", "status2024": "Compliant", "status2030": "Non-Compliant"}}}, {"type": "Feature", "geometry": {"type": "Point", "coordinates": [-73.90593, 40.94115]}, "properties": {"id": "NY-005", "name": "Cross-County Cold Storage Facility", "floors": 1, "address": "6030 Distribution Way", "city": "Yonkers", "state": "NY", "zip": "10701", "propertyType": "Logistics/Cross-dock", "floorArea": 279000.0, "raw": {"en1Imported": 4159672, "en1Generated": 0, "en1Exported": 0, "eui": 14.9092186379928, "scope1": 9.2, "scope2Location": 748.74096, "scope2Market": 626.7, "scope3": 123121.8, "wt1": 2757078, "wt2": 0, "ws1": 0.426}, "cert": {"bc11": "LEED BD+C Silver", "bc12": "LEED O+M Certified", "bc2": null}, "energyStarScore": 38, "twelveMonthDataComplete": false, "energyStarEligible": false, "dataCoverage": 0.937, "confidenceTier": "Estimated", "dataSource": "Utility API feed", "lastUpdated": "2026-06-27", "metrics": {"ghg": {"unit": "mtCO2e", "direction": "Lower is better", "baselineValue": 993.5, "baselineYear": 2019, "currentValue": 757.94096, "targetValue": 596.1, "targetYear": 2030, "progressPct": 0.5927504781077, "varianceVsTarget": 161.84096, "sheetStatus": "At Risk", "p": 0.59275, "band": "At Risk"}, "eui": {"unit": "kWh/sq ft", "direction": "Lower is better", "baselineValue": 19.7, "baselineYear": 2019, "currentValue": 14.9092186379928, "targetValue": 15.76, "targetYear": 2030, "progressPct": 1.21593435583938, "varianceVsTarget": -0.850781362007169, "sheetStatus": "Target Met", "p": 1.0, "band": "Target Met"}, "water": {"unit": "gal", "direction": "Lower is better", "baselineValue": 2256063.3, "baselineYear": 2019, "currentValue": 2757078.0, "targetValue": 1917653.805, "targetYear": 2030, "progressPct": -1.480498353, "varianceVsTarget": 839424.195, "sheetStatus": "Off Track", "p": 0.0, "band": "Off Track"}, "waste": {"unit": "%", "direction": "Higher is better", "baselineValue": 0.293, "baselineYear": 2023, "currentValue": 0.426, "targetValue": 0.75, "targetYear": 2028, "progressPct": 0.291028446389497, "varianceVsTarget": -0.324, "sheetStatus": "Off Track", "p": 0.568, "band": "At Risk"}, "energyStar": {"unit": "1-100", "direction": "Higher is better", "baselineValue": 27.6, "baselineYear": 2023, "currentValue": 38.0, "targetValue": 75.0, "targetYear": 2028, "progressPct": 0.219409282700422, "varianceVsTarget": -37, "sheetStatus": "Off Track", "p": 0.506667, "band": "At Risk"}, "coverage": {"unit": "%", "direction": "Higher is better", "baselineValue": 0.53, "baselineYear": 2023, "currentValue": 0.937, "targetValue": 0.75, "targetYear": 2026, "progressPct": 1.85, "varianceVsTarget": 0.187, "sheetStatus": "Target Met", "p": 1.0, "band": "Target Met"}}, "compliance": {"ll97Applicable": "Yes", "currentEmissions": 757.94096, "limit2024": 1037.88, "overCap2024": -279.93904, "fine2024": 0, "limit2030": 644.49, "overCap2030": 113.45096, "fine2030": 30404.85728, "ll84FilingStatus": "Filed", "ll84NextDeadline": "2027-05-01", "daysToDeadline": 265, "nonFilingPenaltyRate": 139500, "otherLaws": "LL84, LL87 (audit due 2029), LL88, LL33", "status2024": "Compliant", "status2030": "Non-Compliant"}}}, {"type": "Feature", "geometry": {"type": "Point", "coordinates": [-73.78643, 40.9083]}, "properties": {"id": "NY-006", "name": "Sound Shore Manufacturing Plant", "floors": 1, "address": "4471 Enterprise Ave", "city": "New Rochelle", "state": "NY", "zip": "10801", "propertyType": "Warehouse/Distribution", "floorArea": 711000.0, "raw": {"en1Imported": 7262302, "en1Generated": 919778, "en1Exported": 290561, "eui": 10.2142081575246, "scope1": 45.7, "scope2Location": 1307.21436, "scope2Market": 1264.6, "scope3": 366462.3, "wt1": 1951606, "wt2": 0, "ws1": 0.719}, "cert": {"bc11": null, "bc12": null, "bc2": null}, "energyStarScore": 72, "twelveMonthDataComplete": true, "energyStarEligible": false, "dataCoverage": 0.893, "confidenceTier": "Missing", "dataSource": "Utility API feed", "lastUpdated": "2026-05-20", "metrics": {"ghg": {"unit": "mtCO2e", "direction": "Lower is better", "baselineValue": 1704.3, "baselineYear": 2019, "currentValue": 1352.91436, "targetValue": 1022.58, "targetYear": 2030, "progressPct": 0.515439828668661, "varianceVsTarget": 330.33436, "sheetStatus": "At Risk", "p": 0.51544, "band": "At Risk"}, "eui": {"unit": "kWh/sq ft", "direction": "Lower is better", "baselineValue": 13.7, "baselineYear": 2019, "currentValue": 10.2142081575246, "targetValue": 10.96, "targetYear": 2030, "progressPct": 1.27218680382313, "varianceVsTarget": -0.745791842475388, "sheetStatus": "Target Met", "p": 1.0, "band": "Target Met"}, "water": {"unit": "gal", "direction": "Lower is better", "baselineValue": 2530625.9, "baselineYear": 2019, "currentValue": 1951606.0, "targetValue": 2151032.015, "targetYear": 2030, "progressPct": 1.52536677454643, "varianceVsTarget": -199426.015, "sheetStatus": "Target Met", "p": 1.0, "band": "Target Met"}, "waste": {"unit": "%", "direction": "Higher is better", "baselineValue": 0.432, "baselineYear": 2023, "currentValue": 0.719, "targetValue": 0.75, "targetYear": 2028, "progressPct": 0.90251572327044, "varianceVsTarget": -0.031, "sheetStatus": "On Track", "p": 0.958667, "band": "On Track"}, "energyStar": {"unit": "1-100", "direction": "Higher is better", "baselineValue": 45.3, "baselineYear": 2023, "currentValue": 72.0, "targetValue": 75.0, "targetYear": 2028, "progressPct": 0.898989898989899, "varianceVsTarget": -3, "sheetStatus": "On Track", "p": 0.96, "band": "On Track"}, "coverage": {"unit": "%", "direction": "Higher is better", "baselineValue": 0.491, "baselineYear": 2023, "currentValue": 0.893, "targetValue": 0.75, "targetYear": 2026, "progressPct": 1.55212355212355, "varianceVsTarget": 0.143, "sheetStatus": "Target Met", "p": 1.0, "band": "Target Met"}}, "compliance": {"ll97Applicable": "Yes", "currentEmissions": 1352.91436, "limit2024": 1464.66, "overCap2024": -111.74564, "fine2024": 0, "limit2030": 910.08, "overCap2030": 442.83436, "fine2030": 118679.60848, "ll84FilingStatus": "Filed", "ll84NextDeadline": "2027-05-01", "daysToDeadline": 265, "nonFilingPenaltyRate": 355500, "otherLaws": "LL84, LL87 (audit due 2029), LL88, LL33", "status2024": "Compliant", "status2030": "Non-Compliant"}}}, {"type": "Feature", "geometry": {"type": "Point", "coordinates": [-73.83984, 40.90484]}, "properties": {"id": "NY-007", "name": "Saw Mill Flex Industrial Campus", "floors": 2, "address": "8105 Fulton Industrial Rd", "city": "Mount Vernon", "state": "NY", "zip": "10550", "propertyType": "Manufacturing", "floorArea": 74000.0, "raw": {"en1Imported": 1612792, "en1Generated": 0, "en1Exported": 0, "eui": 21.7944864864865, "scope1": 155.6, "scope2Location": 290.30256, "scope2Market": 248.8, "scope3": 55564.4, "wt1": 1978020, "wt2": 48513, "ws1": 0.702}, "cert": {"bc11": null, "bc12": null, "bc2": "ENERGY STAR Certified 2025"}, "energyStarScore": 73, "twelveMonthDataComplete": true, "energyStarEligible": false, "dataCoverage": 0.764, "confidenceTier": "Verified", "dataSource": "Estimate - prior year carried forward", "lastUpdated": "2026-02-27", "metrics": {"ghg": {"unit": "mtCO2e", "direction": "Lower is better", "baselineValue": 520.5, "baselineYear": 2019, "currentValue": 445.90256, "targetValue": 312.3, "targetYear": 2030, "progressPct": 0.35829702209414, "varianceVsTarget": 133.60256, "sheetStatus": "Off Track", "p": 0.358297, "band": "Off Track"}, "eui": {"unit": "kWh/sq ft", "direction": "Lower is better", "baselineValue": 27.5, "baselineYear": 2019, "currentValue": 21.7944864864865, "targetValue": 22.0, "targetYear": 2030, "progressPct": 1.03736609336609, "varianceVsTarget": -0.205513513513512, "sheetStatus": "Target Met", "p": 1.0, "band": "Target Met"}, "water": {"unit": "gal", "direction": "Lower is better", "baselineValue": 513371.1, "baselineYear": 2019, "currentValue": 1978020.0, "targetValue": 436365.435, "targetYear": 2030, "progressPct": -19.02001496, "varianceVsTarget": 1541654.565, "sheetStatus": "Off Track", "p": 0.0, "band": "Off Track"}, "waste": {"unit": "%", "direction": "Higher is better", "baselineValue": 0.411, "baselineYear": 2023, "currentValue": 0.702, "targetValue": 0.75, "targetYear": 2028, "progressPct": 0.858407079646018, "varianceVsTarget": -0.048, "sheetStatus": "On Track", "p": 0.936, "band": "On Track"}, "energyStar": {"unit": "1-100", "direction": "Higher is better", "baselineValue": 40.2, "baselineYear": 2023, "currentValue": 73.0, "targetValue": 75.0, "targetYear": 2028, "progressPct": 0.942528735632184, "varianceVsTarget": -2, "sheetStatus": "On Track", "p": 0.973333, "band": "On Track"}, "coverage": {"unit": "%", "direction": "Higher is better", "baselineValue": 0.455, "baselineYear": 2023, "currentValue": 0.764, "targetValue": 0.75, "targetYear": 2026, "progressPct": 1.04745762711864, "varianceVsTarget": 0.014, "sheetStatus": "Target Met", "p": 1.0, "band": "Target Met"}}, "compliance": {"ll97Applicable": "Yes", "currentEmissions": 445.90256, "limit2024": 376.66, "overCap2024": 69.24256, "fine2024": 18557.00608, "limit2030": 233.1, "overCap2030": 212.80256, "fine2030": 57031.08608, "ll84FilingStatus": "Filed", "ll84NextDeadline": "2027-05-01", "daysToDeadline": 265, "nonFilingPenaltyRate": 37000, "otherLaws": "LL84, LL88, LL33", "status2024": "Non-Compliant", "status2030": "Non-Compliant"}}}, {"type": "Feature", "geometry": {"type": "Point", "coordinates": [-73.82307, 41.06308]}, "properties": {"id": "NY-008", "name": "Broadway Corridor Warehouse", "floors": 1, "address": "3395 Harbor Logistics Ln", "city": "Elmsford", "state": "NY", "zip": "10523", "propertyType": "Cold Storage", "floorArea": 374000.0, "raw": {"en1Imported": 4947229, "en1Generated": 0, "en1Exported": 0, "eui": 13.227885026738, "scope1": 14.9, "scope2Location": 890.50122, "scope2Market": 785.5, "scope3": 117949.6, "wt1": 803067, "wt2": 0, "ws1": 0.557}, "cert": {"bc11": null, "bc12": null, "bc2": "ENERGY STAR Certified 2025"}, "energyStarScore": 52, "twelveMonthDataComplete": true, "energyStarEligible": false, "dataCoverage": 0.834, "confidenceTier": "Verified", "dataSource": "Utility API feed", "lastUpdated": "2026-07-20", "metrics": {"ghg": {"unit": "mtCO2e", "direction": "Lower is better", "baselineValue": 1179, "baselineYear": 2019, "currentValue": 905.40122, "targetValue": 707.4, "targetYear": 2030, "progressPct": 0.580150084817642, "varianceVsTarget": 198.00122, "sheetStatus": "At Risk", "p": 0.58015, "band": "At Risk"}, "eui": {"unit": "kWh/sq ft", "direction": "Lower is better", "baselineValue": 17.4, "baselineYear": 2019, "currentValue": 13.227885026738, "targetValue": 13.92, "targetYear": 2030, "progressPct": 1.19888361300633, "varianceVsTarget": -0.692114973262033, "sheetStatus": "Target Met", "p": 1.0, "band": "Target Met"}, "water": {"unit": "gal", "direction": "Lower is better", "baselineValue": 1084513.7, "baselineYear": 2019, "currentValue": 803067.0, "targetValue": 921836.645, "targetYear": 2030, "progressPct": 1.7300946344277, "varianceVsTarget": -118769.645, "sheetStatus": "Target Met", "p": 1.0, "band": "Target Met"}, "waste": {"unit": "%", "direction": "Higher is better", "baselineValue": 0.316, "baselineYear": 2023, "currentValue": 0.557, "targetValue": 0.75, "targetYear": 2028, "progressPct": 0.555299539170507, "varianceVsTarget": -0.193, "sheetStatus": "At Risk", "p": 0.742667, "band": "At Risk"}, "energyStar": {"unit": "1-100", "direction": "Higher is better", "baselineValue": 35.1, "baselineYear": 2023, "currentValue": 52.0, "targetValue": 75.0, "targetYear": 2028, "progressPct": 0.423558897243108, "varianceVsTarget": -23, "sheetStatus": "At Risk", "p": 0.693333, "band": "At Risk"}, "coverage": {"unit": "%", "direction": "Higher is better", "baselineValue": 0.484, "baselineYear": 2023, "currentValue": 0.834, "targetValue": 0.75, "targetYear": 2026, "progressPct": 1.31578947368421, "varianceVsTarget": 0.084, "sheetStatus": "Target Met", "p": 1.0, "band": "Target Met"}}, "compliance": {"ll97Applicable": "Yes", "currentEmissions": 905.40122, "limit2024": 1095.82, "overCap2024": -190.41878, "fine2024": 0, "limit2030": 680.68, "overCap2030": 224.72122, "fine2030": 60225.28696, "ll84FilingStatus": "Filed", "ll84NextDeadline": "2027-05-01", "daysToDeadline": 265, "nonFilingPenaltyRate": 187000, "otherLaws": "LL84, LL87 (audit due 2027), LL88, LL33", "status2024": "Compliant", "status2030": "Non-Compliant"}}}, {"type": "Feature", "geometry": {"type": "Point", "coordinates": [-73.52172, 40.76316]}, "properties": {"id": "NY-009", "name": "Sunrise Supply Chain Center", "floors": 2, "address": "1260 Trade Center Dr", "city": "Hicksville", "state": "NY", "zip": "11801", "propertyType": "Flex Industrial", "floorArea": 581000.0, "raw": {"en1Imported": 6390602, "en1Generated": 973043, "en1Exported": 263999, "eui": 10.9993149741824, "scope1": 47.1, "scope2Location": 1150.30836, "scope2Market": 781.5, "scope3": 437435.6, "wt1": 1936397, "wt2": 125202, "ws1": 0.451}, "cert": {"bc11": "LEED BD+C Silver", "bc12": null, "bc2": "ENERGY STAR Certified 2025"}, "energyStarScore": 79, "twelveMonthDataComplete": true, "energyStarEligible": true, "dataCoverage": 0.844, "confidenceTier": "Verified", "dataSource": "Estimate - prior year carried forward", "lastUpdated": "2026-06-20", "metrics": {"ghg": {"unit": "mtCO2e", "direction": "Lower is better", "baselineValue": 1390.5, "baselineYear": 2019, "currentValue": 1197.40836, "targetValue": 834.3, "targetYear": 2030, "progressPct": 0.347162243797195, "varianceVsTarget": 363.10836, "sheetStatus": "Off Track", "p": 0.347162, "band": "Off Track"}, "eui": {"unit": "kWh/sq ft", "direction": "Lower is better", "baselineValue": 12.9, "baselineYear": 2019, "currentValue": 10.9993149741824, "targetValue": 10.32, "targetYear": 2030, "progressPct": 0.736699622409906, "varianceVsTarget": 0.679314974182443, "sheetStatus": "At Risk", "p": 0.7367, "band": "At Risk"}, "water": {"unit": "gal", "direction": "Lower is better", "baselineValue": 2671010.4, "baselineYear": 2019, "currentValue": 1936397.0, "targetValue": 2270358.84, "targetYear": 2030, "progressPct": 1.83354683555956, "varianceVsTarget": -333961.84, "sheetStatus": "Target Met", "p": 1.0, "band": "Target Met"}, "waste": {"unit": "%", "direction": "Higher is better", "baselineValue": 0.352, "baselineYear": 2023, "currentValue": 0.451, "targetValue": 0.75, "targetYear": 2028, "progressPct": 0.248743718592965, "varianceVsTarget": -0.299, "sheetStatus": "Off Track", "p": 0.601333, "band": "At Risk"}, "energyStar": {"unit": "1-100", "direction": "Higher is better", "baselineValue": 52.2, "baselineYear": 2023, "currentValue": 79.0, "targetValue": 75.0, "targetYear": 2028, "progressPct": 1.17543859649123, "varianceVsTarget": 4, "sheetStatus": "Target Met", "p": 1.0, "band": "Target Met"}, "coverage": {"unit": "%", "direction": "Higher is better", "baselineValue": 0.556, "baselineYear": 2023, "currentValue": 0.844, "targetValue": 0.75, "targetYear": 2026, "progressPct": 1.48453608247423, "varianceVsTarget": 0.094, "sheetStatus": "Target Met", "p": 1.0, "band": "Target Met"}}, "compliance": {"ll97Applicable": "Yes", "currentEmissions": 1197.40836, "limit2024": 1632.61, "overCap2024": -435.20164, "fine2024": 0, "limit2030": 1010.94, "overCap2030": 186.46836, "fine2030": 49973.52048, "ll84FilingStatus": "Filed", "ll84NextDeadline": "2027-05-01", "daysToDeadline": 265, "nonFilingPenaltyRate": 290500, "otherLaws": "LL84, LL88, LL33", "status2024": "Compliant", "status2030": "Non-Compliant"}}}, {"type": "Feature", "geometry": {"type": "Point", "coordinates": [-73.24467, 40.71673]}, "properties": {"id": "NY-010", "name": "Great South Bay Distribution Center", "floors": 1, "address": "1890 Gateway Blvd", "city": "Bay Shore", "state": "NY", "zip": "11706", "propertyType": "Light Industrial", "floorArea": 309000.0, "raw": {"en1Imported": 3078428, "en1Generated": 294037, "en1Exported": 106543, "eui": 9.9625501618123, "scope1": 525.2, "scope2Location": 554.11704, "scope2Market": 443.3, "scope3": 219670.5, "wt1": 829776, "wt2": 0, "ws1": 0.526}, "cert": {"bc11": null, "bc12": null, "bc2": null}, "energyStarScore": 69, "twelveMonthDataComplete": true, "energyStarEligible": false, "dataCoverage": 0.625, "confidenceTier": "Verified", "dataSource": "Estimate - prior year carried forward", "lastUpdated": "2026-01-15", "metrics": {"ghg": {"unit": "mtCO2e", "direction": "Lower is better", "baselineValue": 1381.6, "baselineYear": 2019, "currentValue": 1079.31704, "targetValue": 828.96, "targetYear": 2030, "progressPct": 0.546979878401853, "varianceVsTarget": 250.35704, "sheetStatus": "At Risk", "p": 0.54698, "band": "At Risk"}, "eui": {"unit": "kWh/sq ft", "direction": "Lower is better", "baselineValue": 11.6, "baselineYear": 2019, "currentValue": 9.9625501618123, "targetValue": 9.28, "targetYear": 2030, "progressPct": 0.705797344046423, "varianceVsTarget": 0.682550161812298, "sheetStatus": "At Risk", "p": 0.705797, "band": "At Risk"}, "water": {"unit": "gal", "direction": "Lower is better", "baselineValue": 1096887.4, "baselineYear": 2019, "currentValue": 829776.0, "targetValue": 932354.29, "targetYear": 2030, "progressPct": 1.62345074495948, "varianceVsTarget": -102578.29, "sheetStatus": "Target Met", "p": 1.0, "band": "Target Met"}, "waste": {"unit": "%", "direction": "Higher is better", "baselineValue": 0.31, "baselineYear": 2023, "currentValue": 0.526, "targetValue": 0.75, "targetYear": 2028, "progressPct": 0.490909090909091, "varianceVsTarget": -0.224, "sheetStatus": "At Risk", "p": 0.701333, "band": "At Risk"}, "energyStar": {"unit": "1-100", "direction": "Higher is better", "baselineValue": 49.7, "baselineYear": 2023, "currentValue": 69.0, "targetValue": 75.0, "targetYear": 2028, "progressPct": 0.762845849802372, "varianceVsTarget": -6, "sheetStatus": "On Track", "p": 0.92, "band": "On Track"}, "coverage": {"unit": "%", "direction": "Higher is better", "baselineValue": 0.349, "baselineYear": 2023, "currentValue": 0.625, "targetValue": 0.75, "targetYear": 2026, "progressPct": 0.688279301745636, "varianceVsTarget": -0.125, "sheetStatus": "At Risk", "p": 0.833333, "band": "On Track"}}, "compliance": {"ll97Applicable": "Yes", "currentEmissions": 1079.31704, "limit2024": 994.98, "overCap2024": 84.3370400000001, "fine2024": 22602.32672, "limit2030": 618, "overCap2030": 461.31704, "fine2030": 123632.96672, "ll84FilingStatus": "Filed", "ll84NextDeadline": "2027-05-01", "daysToDeadline": 265, "nonFilingPenaltyRate": 154500, "otherLaws": "LL84, LL87 (audit due 2027), LL88, LL33", "status2024": "At Risk", "status2030": "Non-Compliant"}}}, {"type": "Feature", "geometry": {"type": "Point", "coordinates": [-73.1306, 40.83681]}, "properties": {"id": "NY-011", "name": "Long Island Logistics Hub", "floors": 1, "address": "6309 Freight St", "city": "Ronkonkoma", "state": "NY", "zip": "11779", "propertyType": "Logistics/Cross-dock", "floorArea": 57000.0, "raw": {"en1Imported": 1081688, "en1Generated": 0, "en1Exported": 0, "eui": 18.9769824561404, "scope1": 57.4, "scope2Location": 194.70384, "scope2Market": 185.6, "scope3": 86238, "wt1": 335751, "wt2": 0, "ws1": 0.279}, "cert": {"bc11": null, "bc12": null, "bc2": null}, "energyStarScore": 72, "twelveMonthDataComplete": true, "energyStarEligible": false, "dataCoverage": 0.811, "confidenceTier": "Verified", "dataSource": "Tenant self-report", "lastUpdated": "2026-01-11", "metrics": {"ghg": {"unit": "mtCO2e", "direction": "Lower is better", "baselineValue": 295.2, "baselineYear": 2019, "currentValue": 252.10384, "targetValue": 177.12, "targetYear": 2030, "progressPct": 0.364974254742547, "varianceVsTarget": 74.98384, "sheetStatus": "Off Track", "p": 0.364974, "band": "Off Track"}, "eui": {"unit": "kWh/sq ft", "direction": "Lower is better", "baselineValue": 23, "baselineYear": 2019, "currentValue": 18.9769824561404, "targetValue": 18.4, "targetYear": 2030, "progressPct": 0.874569031273837, "varianceVsTarget": 0.57698245614035, "sheetStatus": "On Track", "p": 0.874569, "band": "On Track"}, "water": {"unit": "gal", "direction": "Lower is better", "baselineValue": 474296.4, "baselineYear": 2019, "currentValue": 335751.0, "targetValue": 403151.94, "targetYear": 2030, "progressPct": 1.94738142646666, "varianceVsTarget": -67400.94, "sheetStatus": "Target Met", "p": 1.0, "band": "Target Met"}, "waste": {"unit": "%", "direction": "Higher is better", "baselineValue": 0.174, "baselineYear": 2023, "currentValue": 0.279, "targetValue": 0.75, "targetYear": 2028, "progressPct": 0.182291666666667, "varianceVsTarget": -0.471, "sheetStatus": "Off Track", "p": 0.372, "band": "Off Track"}, "energyStar": {"unit": "1-100", "direction": "Higher is better", "baselineValue": 60.2, "baselineYear": 2023, "currentValue": 72.0, "targetValue": 75.0, "targetYear": 2028, "progressPct": 0.797297297297297, "varianceVsTarget": -3, "sheetStatus": "On Track", "p": 0.96, "band": "On Track"}, "coverage": {"unit": "%", "direction": "Higher is better", "baselineValue": 0.659, "baselineYear": 2023, "currentValue": 0.811, "targetValue": 0.75, "targetYear": 2026, "progressPct": 1.67032967032967, "varianceVsTarget": 0.0610000000000001, "sheetStatus": "Target Met", "p": 1.0, "band": "Target Met"}}, "compliance": {"ll97Applicable": "Yes", "currentEmissions": 252.10384, "limit2024": 212.04, "overCap2024": 40.06384, "fine2024": 10737.10912, "limit2030": 131.67, "overCap2030": 120.43384, "fine2030": 32276.26912, "ll84FilingStatus": "Filed", "ll84NextDeadline": "2027-05-01", "daysToDeadline": 265, "nonFilingPenaltyRate": 28500, "otherLaws": "LL84, LL87 (audit due 2029), LL88, LL33", "status2024": "Non-Compliant", "status2030": "Non-Compliant"}}}, {"type": "Feature", "geometry": {"type": "Point", "coordinates": [-73.43915, 40.73266]}, "properties": {"id": "NY-012", "name": "Bethpage Industrial Park - Bldg 1", "floors": 1, "address": "9671 Depot Ave", "city": "Farmingdale", "state": "NY", "zip": "11735", "propertyType": "Warehouse/Distribution", "floorArea": 543000.0, "raw": {"en1Imported": 5540803, "en1Generated": 0, "en1Exported": 0, "eui": 10.2040570902394, "scope1": 120.8, "scope2Location": 997.34454, "scope2Market": 711.7, "scope3": 308634.4, "wt1": 4378752, "wt2": 65682, "ws1": 0.75}, "cert": {"bc11": null, "bc12": null, "bc2": null}, "energyStarScore": 80, "twelveMonthDataComplete": true, "energyStarEligible": true, "dataCoverage": 0.587, "confidenceTier": "Verified", "dataSource": "Tenant self-report", "lastUpdated": "2026-03-16", "metrics": {"ghg": {"unit": "mtCO2e", "direction": "Lower is better", "baselineValue": 1316.3, "baselineYear": 2019, "currentValue": 1118.14454, "targetValue": 789.78, "targetYear": 2030, "progressPct": 0.376349350452025, "varianceVsTarget": 328.36454, "sheetStatus": "Off Track", "p": 0.376349, "band": "Off Track"}, "eui": {"unit": "kWh/sq ft", "direction": "Lower is better", "baselineValue": 13.8, "baselineYear": 2019, "currentValue": 10.2040570902394, "targetValue": 11.04, "targetYear": 2030, "progressPct": 1.30287786585529, "varianceVsTarget": -0.83594290976059, "sheetStatus": "Target Met", "p": 1.0, "band": "Target Met"}, "water": {"unit": "gal", "direction": "Lower is better", "baselineValue": 4544141.4, "baselineYear": 2019, "currentValue": 4378752.0, "targetValue": 3862520.19, "targetYear": 2030, "progressPct": 0.2426412171, "varianceVsTarget": 516231.81, "sheetStatus": "Off Track", "p": 0.242641, "band": "Off Track"}, "waste": {"unit": "%", "direction": "Higher is better", "baselineValue": 0.5, "baselineYear": 2023, "currentValue": 0.75, "targetValue": 0.75, "targetYear": 2028, "progressPct": 1.0, "varianceVsTarget": 0, "sheetStatus": "Target Met", "p": 1.0, "band": "Target Met"}, "energyStar": {"unit": "1-100", "direction": "Higher is better", "baselineValue": 60.6, "baselineYear": 2023, "currentValue": 80.0, "targetValue": 75.0, "targetYear": 2028, "progressPct": 1.34722222222222, "varianceVsTarget": 5, "sheetStatus": "Target Met", "p": 1.0, "band": "Target Met"}, "coverage": {"unit": "%", "direction": "Higher is better", "baselineValue": 0.431, "baselineYear": 2023, "currentValue": 0.587, "targetValue": 0.75, "targetYear": 2026, "progressPct": 0.489028213166144, "varianceVsTarget": -0.163, "sheetStatus": "At Risk", "p": 0.782667, "band": "On Track"}}, "compliance": {"ll97Applicable": "Yes", "currentEmissions": 1118.14454, "limit2024": 1118.58, "overCap2024": -0.435460000000148, "fine2024": 0, "limit2030": 695.04, "overCap2030": 423.10454, "fine2030": 113392.01672, "ll84FilingStatus": "Filed", "ll84NextDeadline": "2027-05-01", "daysToDeadline": 265, "nonFilingPenaltyRate": 271500, "otherLaws": "LL84, LL87 (audit due 2029), LL88, LL33", "status2024": "Compliant", "status2030": "Non-Compliant"}}}, {"type": "Feature", "geometry": {"type": "Point", "coordinates": [-73.42358, 40.78901]}, "properties": {"id": "NY-013", "name": "Half Hollow Fulfillment Center", "floors": 2, "address": "5247 Terminal Rd", "city": "Melville", "state": "NY", "zip": "11747", "propertyType": "Manufacturing", "floorArea": 299000.0, "raw": {"en1Imported": 5094066, "en1Generated": 0, "en1Exported": 0, "eui": 17.0370100334448, "scope1": 603.9, "scope2Location": 916.93188, "scope2Market": 679.5, "scope3": 387882.9, "wt1": 617497, "wt2": 0, "ws1": 0.54}, "cert": {"bc11": null, "bc12": null, "bc2": null}, "energyStarScore": 54, "twelveMonthDataComplete": false, "energyStarEligible": false, "dataCoverage": 0.646, "confidenceTier": "Verified", "dataSource": "Tenant self-report", "lastUpdated": "2026-01-17", "metrics": {"ghg": {"unit": "mtCO2e", "direction": "Lower is better", "baselineValue": 1942.6, "baselineYear": 2019, "currentValue": 1520.83188, "targetValue": 1165.56, "targetYear": 2030, "progressPct": 0.542788170493153, "varianceVsTarget": 355.27188, "sheetStatus": "At Risk", "p": 0.542788, "band": "At Risk"}, "eui": {"unit": "kWh/sq ft", "direction": "Lower is better", "baselineValue": 21.8, "baselineYear": 2019, "currentValue": 17.0370100334448, "targetValue": 17.44, "targetYear": 2030, "progressPct": 1.09242889141174, "varianceVsTarget": -0.402989966555186, "sheetStatus": "Target Met", "p": 1.0, "band": "Target Met"}, "water": {"unit": "gal", "direction": "Lower is better", "baselineValue": 838924.4, "baselineYear": 2019, "currentValue": 617497.0, "targetValue": 713085.74, "targetYear": 2030, "progressPct": 1.75961346060106, "varianceVsTarget": -95588.74, "sheetStatus": "Target Met", "p": 1.0, "band": "Target Met"}, "waste": {"unit": "%", "direction": "Higher is better", "baselineValue": 0.438, "baselineYear": 2023, "currentValue": 0.54, "targetValue": 0.75, "targetYear": 2028, "progressPct": 0.326923076923077, "varianceVsTarget": -0.21, "sheetStatus": "Off Track", "p": 0.72, "band": "At Risk"}, "energyStar": {"unit": "1-100", "direction": "Higher is better", "baselineValue": 38.1, "baselineYear": 2023, "currentValue": 54.0, "targetValue": 75.0, "targetYear": 2028, "progressPct": 0.430894308943089, "varianceVsTarget": -21, "sheetStatus": "At Risk", "p": 0.72, "band": "At Risk"}, "coverage": {"unit": "%", "direction": "Higher is better", "baselineValue": 0.384, "baselineYear": 2023, "currentValue": 0.646, "targetValue": 0.75, "targetYear": 2026, "progressPct": 0.715846994535519, "varianceVsTarget": -0.104, "sheetStatus": "At Risk", "p": 0.861333, "band": "On Track"}}, "compliance": {"ll97Applicable": "Yes", "currentEmissions": 1520.83188, "limit2024": 1521.91, "overCap2024": -1.0781199999999, "fine2024": 0, "limit2030": 941.85, "overCap2030": 578.98188, "fine2030": 155167.14384, "ll84FilingStatus": "Filed", "ll84NextDeadline": "2027-05-01", "daysToDeadline": 265, "nonFilingPenaltyRate": 149500, "otherLaws": "LL84, LL88, LL33", "status2024": "Compliant", "status2030": "Non-Compliant"}}}, {"type": "Feature", "geometry": {"type": "Point", "coordinates": [-73.19533, 40.81185]}, "properties": {"id": "NY-014", "name": "Hudson Valley Cross-Dock Terminal", "floors": 1, "address": "6154 Cross Dock Ct", "city": "Hauppauge", "state": "NY", "zip": "11788", "propertyType": "Cold Storage", "floorArea": 346000.0, "raw": {"en1Imported": 6175947, "en1Generated": 0, "en1Exported": 0, "eui": 17.8495578034682, "scope1": 39.2, "scope2Location": 1111.67046, "scope2Market": 850, "scope3": 126417.8, "wt1": 5231520, "wt2": 265789, "ws1": 0.781}, "cert": {"bc11": null, "bc12": "LEED O+M Certified", "bc2": null}, "energyStarScore": 85, "twelveMonthDataComplete": true, "energyStarEligible": true, "dataCoverage": 0.95, "confidenceTier": "Verified", "dataSource": "Tenant self-report", "lastUpdated": "2026-03-16", "metrics": {"ghg": {"unit": "mtCO2e", "direction": "Lower is better", "baselineValue": 1609, "baselineYear": 2019, "currentValue": 1150.87046, "targetValue": 965.4, "targetYear": 2030, "progressPct": 0.711823399627097, "varianceVsTarget": 185.47046, "sheetStatus": "At Risk", "p": 0.711823, "band": "At Risk"}, "eui": {"unit": "kWh/sq ft", "direction": "Lower is better", "baselineValue": 22.2, "baselineYear": 2019, "currentValue": 17.8495578034682, "targetValue": 17.76, "targetYear": 2030, "progressPct": 0.979829323543197, "varianceVsTarget": 0.0895578034682067, "sheetStatus": "On Track", "p": 0.979829, "band": "On Track"}, "water": {"unit": "gal", "direction": "Lower is better", "baselineValue": 3547953.1, "baselineYear": 2019, "currentValue": 5231520.0, "targetValue": 3015760.135, "targetYear": 2030, "progressPct": -3.163452001, "varianceVsTarget": 2215759.865, "sheetStatus": "Off Track", "p": 0.0, "band": "Off Track"}, "waste": {"unit": "%", "direction": "Higher is better", "baselineValue": 0.448, "baselineYear": 2023, "currentValue": 0.781, "targetValue": 0.75, "targetYear": 2028, "progressPct": 1.10264900662252, "varianceVsTarget": 0.031, "sheetStatus": "Target Met", "p": 1.0, "band": "Target Met"}, "energyStar": {"unit": "1-100", "direction": "Higher is better", "baselineValue": 62.5, "baselineYear": 2023, "currentValue": 85.0, "targetValue": 75.0, "targetYear": 2028, "progressPct": 1.8, "varianceVsTarget": 10, "sheetStatus": "Target Met", "p": 1.0, "band": "Target Met"}, "coverage": {"unit": "%", "direction": "Higher is better", "baselineValue": 0.594, "baselineYear": 2023, "currentValue": 0.95, "targetValue": 0.75, "targetYear": 2026, "progressPct": 2.28205128205128, "varianceVsTarget": 0.2, "sheetStatus": "Target Met", "p": 1.0, "band": "Target Met"}}, "compliance": {"ll97Applicable": "Yes", "currentEmissions": 1150.87046, "limit2024": 1013.78, "overCap2024": 137.09046, "fine2024": 36740.24328, "limit2030": 629.72, "overCap2030": 521.15046, "fine2030": 139668.32328, "ll84FilingStatus": "Filed", "ll84NextDeadline": "2027-05-01", "daysToDeadline": 265, "nonFilingPenaltyRate": 173000, "otherLaws": "LL84, LL87 (audit due 2027), LL88, LL33", "status2024": "Non-Compliant", "status2030": "Non-Compliant"}}}, {"type": "Feature", "geometry": {"type": "Point", "coordinates": [-74.00334, 41.50715]}, "properties": {"id": "NY-015", "name": "Mid-Hudson Cold Storage Facility", "floors": 1, "address": "5717 Warehouse Row", "city": "Newburgh", "state": "NY", "zip": "12550", "propertyType": "Flex Industrial", "floorArea": 263000.0, "raw": {"en1Imported": 3964916, "en1Generated": 0, "en1Exported": 0, "eui": 15.0757262357414, "scope1": 3, "scope2Location": 713.68488, "scope2Market": 577.5, "scope3": 230191.4, "wt1": 3692520, "wt2": 102710, "ws1": 0.264}, "cert": {"bc11": null, "bc12": null, "bc2": "ENERGY STAR Certified 2025"}, "energyStarScore": 83, "twelveMonthDataComplete": true, "energyStarEligible": true, "dataCoverage": 0.749, "confidenceTier": "Verified", "dataSource": "Utility API feed", "lastUpdated": "2026-01-12", "metrics": {"ghg": {"unit": "mtCO2e", "direction": "Lower is better", "baselineValue": 850.8, "baselineYear": 2019, "currentValue": 716.68488, "targetValue": 510.48, "targetYear": 2030, "progressPct": 0.39408533145275, "varianceVsTarget": 206.20488, "sheetStatus": "Off Track", "p": 0.394085, "band": "Off Track"}, "eui": {"unit": "kWh/sq ft", "direction": "Lower is better", "baselineValue": 20, "baselineYear": 2019, "currentValue": 15.0757262357414, "targetValue": 16.0, "targetYear": 2030, "progressPct": 1.23106844106464, "varianceVsTarget": -0.924273764258555, "sheetStatus": "Target Met", "p": 1.0, "band": "Target Met"}, "water": {"unit": "gal", "direction": "Lower is better", "baselineValue": 2717881.1, "baselineYear": 2019, "currentValue": 3692520.0, "targetValue": 2310198.935, "targetYear": 2030, "progressPct": -2.390683193, "varianceVsTarget": 1382321.065, "sheetStatus": "Off Track", "p": 0.0, "band": "Off Track"}, "waste": {"unit": "%", "direction": "Higher is better", "baselineValue": 0.181, "baselineYear": 2023, "currentValue": 0.264, "targetValue": 0.75, "targetYear": 2028, "progressPct": 0.145869947275923, "varianceVsTarget": -0.486, "sheetStatus": "Off Track", "p": 0.352, "band": "Off Track"}, "energyStar": {"unit": "1-100", "direction": "Higher is better", "baselineValue": 62.5, "baselineYear": 2023, "currentValue": 83.0, "targetValue": 75.0, "targetYear": 2028, "progressPct": 1.64, "varianceVsTarget": 8, "sheetStatus": "Target Met", "p": 1.0, "band": "Target Met"}, "coverage": {"unit": "%", "direction": "Higher is better", "baselineValue": 0.49, "baselineYear": 2023, "currentValue": 0.749, "targetValue": 0.75, "targetYear": 2026, "progressPct": 0.996153846153846, "varianceVsTarget": -0.001, "sheetStatus": "On Track", "p": 0.998667, "band": "On Track"}}, "compliance": {"ll97Applicable": "Yes", "currentEmissions": 716.68488, "limit2024": 739.03, "overCap2024": -22.34512, "fine2024": 0, "limit2030": 457.62, "overCap2030": 259.06488, "fine2030": 69429.38784, "ll84FilingStatus": "Filed", "ll84NextDeadline": "2027-05-01", "daysToDeadline": 265, "nonFilingPenaltyRate": 131500, "otherLaws": "LL84, LL88, LL33", "status2024": "Compliant", "status2030": "Non-Compliant"}}}, {"type": "Feature", "geometry": {"type": "Point", "coordinates": [-73.92362, 41.69112]}, "properties": {"id": "NY-016", "name": "Rondout Manufacturing Plant", "floors": 2, "address": "2542 Logistics Pkwy", "city": "Poughkeepsie", "state": "NY", "zip": "12601", "propertyType": "Light Industrial", "floorArea": 613000.0, "raw": {"en1Imported": 9645770, "en1Generated": 0, "en1Exported": 0, "eui": 15.7353507340946, "scope1": 237, "scope2Location": 1736.2386, "scope2Market": 1333.6, "scope3": 732936.5, "wt1": 6979005, "wt2": 289701, "ws1": 0.617}, "cert": {"bc11": null, "bc12": "LEED O+M Silver", "bc2": null}, "energyStarScore": 64, "twelveMonthDataComplete": false, "energyStarEligible": false, "dataCoverage": 0.948, "confidenceTier": "Missing", "dataSource": "Landlord submeter", "lastUpdated": "2026-02-15", "metrics": {"ghg": {"unit": "mtCO2e", "direction": "Lower is better", "baselineValue": 2401.4, "baselineYear": 2019, "currentValue": 1973.2386, "targetValue": 1440.84, "targetYear": 2030, "progressPct": 0.44574144249188, "varianceVsTarget": 532.3986, "sheetStatus": "At Risk", "p": 0.445741, "band": "At Risk"}, "eui": {"unit": "kWh/sq ft", "direction": "Lower is better", "baselineValue": 20.2, "baselineYear": 2019, "currentValue": 15.7353507340946, "targetValue": 16.16, "targetYear": 2030, "progressPct": 1.10511120443203, "varianceVsTarget": -0.424649265905384, "sheetStatus": "Target Met", "p": 1.0, "band": "Target Met"}, "water": {"unit": "gal", "direction": "Lower is better", "baselineValue": 6946085.1, "baselineYear": 2019, "currentValue": 6979005.0, "targetValue": 5904172.335, "targetYear": 2030, "progressPct": -0.03159563939, "varianceVsTarget": 1074832.665, "sheetStatus": "Off Track", "p": 0.0, "band": "Off Track"}, "waste": {"unit": "%", "direction": "Higher is better", "baselineValue": 0.441, "baselineYear": 2023, "currentValue": 0.617, "targetValue": 0.75, "targetYear": 2028, "progressPct": 0.56957928802589, "varianceVsTarget": -0.133, "sheetStatus": "At Risk", "p": 0.822667, "band": "On Track"}, "energyStar": {"unit": "1-100", "direction": "Higher is better", "baselineValue": 36.2, "baselineYear": 2023, "currentValue": 64.0, "targetValue": 75.0, "targetYear": 2028, "progressPct": 0.716494845360825, "varianceVsTarget": -11, "sheetStatus": "At Risk", "p": 0.853333, "band": "On Track"}, "coverage": {"unit": "%", "direction": "Higher is better", "baselineValue": 0.625, "baselineYear": 2023, "currentValue": 0.948, "targetValue": 0.75, "targetYear": 2026, "progressPct": 2.584, "varianceVsTarget": 0.198, "sheetStatus": "Target Met", "p": 1.0, "band": "Target Met"}}, "compliance": {"ll97Applicable": "Yes", "currentEmissions": 1973.2386, "limit2024": 1973.86, "overCap2024": -0.621399999999994, "fine2024": 0, "limit2030": 1226, "overCap2030": 747.2386, "fine2030": 200259.9448, "ll84FilingStatus": "Filed", "ll84NextDeadline": "2027-05-01", "daysToDeadline": 265, "nonFilingPenaltyRate": 306500, "otherLaws": "LL84, LL88, LL33", "status2024": "Compliant", "status2030": "Non-Compliant"}}}, {"type": "Feature", "geometry": {"type": "Point", "coordinates": [-73.99267, 41.9175]}, "properties": {"id": "NY-017", "name": "Capital Region Flex Industrial Campus", "floors": 1, "address": "3000 Foundry St", "city": "Kingston", "state": "NY", "zip": "12401", "propertyType": "Logistics/Cross-dock", "floorArea": 477000.0, "raw": {"en1Imported": 6034334, "en1Generated": 0, "en1Exported": 0, "eui": 12.6505953878407, "scope1": 51.8, "scope2Location": 1086.18012, "scope2Market": 1040.4, "scope3": 414226.6, "wt1": 1844864, "wt2": 0, "ws1": 0.249}, "cert": {"bc11": null, "bc12": "ENERGY STAR Certified", "bc2": "ENERGY STAR Certified 2025"}, "energyStarScore": 90, "twelveMonthDataComplete": false, "energyStarEligible": false, "dataCoverage": 0.65, "confidenceTier": "Missing", "dataSource": "Tenant self-report", "lastUpdated": "2026-03-17", "metrics": {"ghg": {"unit": "mtCO2e", "direction": "Lower is better", "baselineValue": 1522.9, "baselineYear": 2019, "currentValue": 1137.98012, "targetValue": 913.74, "targetYear": 2030, "progressPct": 0.631886335281371, "varianceVsTarget": 224.24012, "sheetStatus": "At Risk", "p": 0.631886, "band": "At Risk"}, "eui": {"unit": "kWh/sq ft", "direction": "Lower is better", "baselineValue": 15.7, "baselineYear": 2019, "currentValue": 12.6505953878407, "targetValue": 12.56, "targetYear": 2030, "progressPct": 0.971147965655838, "varianceVsTarget": 0.0905953878406702, "sheetStatus": "On Track", "p": 0.971148, "band": "On Track"}, "water": {"unit": "gal", "direction": "Lower is better", "baselineValue": 2586481.5, "baselineYear": 2019, "currentValue": 1844864.0, "targetValue": 2198509.275, "targetYear": 2030, "progressPct": 1.91152214568968, "varianceVsTarget": -353645.275, "sheetStatus": "Target Met", "p": 1.0, "band": "Target Met"}, "waste": {"unit": "%", "direction": "Higher is better", "baselineValue": 0.203, "baselineYear": 2023, "currentValue": 0.249, "targetValue": 0.75, "targetYear": 2028, "progressPct": 0.0840950639853748, "varianceVsTarget": -0.501, "sheetStatus": "Off Track", "p": 0.332, "band": "Off Track"}, "energyStar": {"unit": "1-100", "direction": "Higher is better", "baselineValue": 73.8, "baselineYear": 2023, "currentValue": 90.0, "targetValue": 75.0, "targetYear": 2028, "progressPct": 13.5, "varianceVsTarget": 15, "sheetStatus": "Target Met", "p": 1.0, "band": "Target Met"}, "coverage": {"unit": "%", "direction": "Higher is better", "baselineValue": 0.381, "baselineYear": 2023, "currentValue": 0.65, "targetValue": 0.75, "targetYear": 2026, "progressPct": 0.7289972899729, "varianceVsTarget": -0.1, "sheetStatus": "At Risk", "p": 0.866667, "band": "On Track"}}, "compliance": {"ll97Applicable": "Yes", "currentEmissions": 1137.98012, "limit2024": 1774.44, "overCap2024": -636.45988, "fine2024": 0, "limit2030": 1101.87, "overCap2030": 36.1101200000001, "fine2030": 9677.51216000001, "ll84FilingStatus": "Filed - Late", "ll84NextDeadline": "2027-05-01", "daysToDeadline": 265, "nonFilingPenaltyRate": 238500, "otherLaws": "LL84, LL87 (audit due 2027), LL88, LL33", "status2024": "Compliant", "status2030": "At Risk"}}}, {"type": "Feature", "geometry": {"type": "Point", "coordinates": [-73.83903, 42.6835]}, "properties": {"id": "NY-018", "name": "Mohawk Valley Warehouse", "floors": 1, "address": "3752 Rail Yard Rd", "city": "Albany", "state": "NY", "zip": "12205", "propertyType": "Warehouse/Distribution", "floorArea": 79000.0, "raw": {"en1Imported": 940134, "en1Generated": 124849, "en1Exported": 25636, "eui": 11.9004303797468, "scope1": 40.8, "scope2Location": 169.22412, "scope2Market": 126.5, "scope3": 66392, "wt1": 796320, "wt2": 44876, "ws1": 0.347}, "cert": {"bc11": null, "bc12": null, "bc2": null}, "energyStarScore": 60, "twelveMonthDataComplete": true, "energyStarEligible": false, "dataCoverage": 0.818, "confidenceTier": "Estimated", "dataSource": "Tenant self-report", "lastUpdated": "2026-04-26", "metrics": {"ghg": {"unit": "mtCO2e", "direction": "Lower is better", "baselineValue": 301.2, "baselineYear": 2019, "currentValue": 210.02412, "targetValue": 180.72, "targetYear": 2030, "progressPct": 0.756771912350598, "varianceVsTarget": 29.30412, "sheetStatus": "On Track", "p": 0.756772, "band": "On Track"}, "eui": {"unit": "kWh/sq ft", "direction": "Lower is better", "baselineValue": 16.5, "baselineYear": 2019, "currentValue": 11.9004303797468, "targetValue": 13.2, "targetYear": 2030, "progressPct": 1.39380897583429, "varianceVsTarget": -1.29956962025317, "sheetStatus": "Target Met", "p": 1.0, "band": "Target Met"}, "water": {"unit": "gal", "direction": "Lower is better", "baselineValue": 488970.1, "baselineYear": 2019, "currentValue": 796320.0, "targetValue": 415624.585, "targetYear": 2030, "progressPct": -4.190438911, "varianceVsTarget": 380695.415, "sheetStatus": "Off Track", "p": 0.0, "band": "Off Track"}, "waste": {"unit": "%", "direction": "Higher is better", "baselineValue": 0.276, "baselineYear": 2023, "currentValue": 0.347, "targetValue": 0.75, "targetYear": 2028, "progressPct": 0.149789029535865, "varianceVsTarget": -0.403, "sheetStatus": "Off Track", "p": 0.462667, "band": "At Risk"}, "energyStar": {"unit": "1-100", "direction": "Higher is better", "baselineValue": 47, "baselineYear": 2023, "currentValue": 60.0, "targetValue": 75.0, "targetYear": 2028, "progressPct": 0.464285714285714, "varianceVsTarget": -15, "sheetStatus": "At Risk", "p": 0.8, "band": "On Track"}, "coverage": {"unit": "%", "direction": "Higher is better", "baselineValue": 0.658, "baselineYear": 2023, "currentValue": 0.818, "targetValue": 0.75, "targetYear": 2026, "progressPct": 1.73913043478261, "varianceVsTarget": 0.068, "sheetStatus": "Target Met", "p": 1.0, "band": "Target Met"}}, "compliance": {"ll97Applicable": "Yes", "currentEmissions": 210.02412, "limit2024": 162.74, "overCap2024": 47.28412, "fine2024": 12672.14416, "limit2030": 101.12, "overCap2030": 108.90412, "fine2030": 29186.30416, "ll84FilingStatus": "Filed", "ll84NextDeadline": "2027-05-01", "daysToDeadline": 265, "nonFilingPenaltyRate": 39500, "otherLaws": "LL84, LL88, LL33", "status2024": "Non-Compliant", "status2030": "Non-Compliant"}}}, {"type": "Feature", "geometry": {"type": "Point", "coordinates": [-73.9458, 42.82219]}, "properties": {"id": "NY-019", "name": "Hudson-Mohawk Supply Chain Center", "floors": 1, "address": "1994 Plant Ave", "city": "Schenectady", "state": "NY", "zip": "12305", "propertyType": "Manufacturing", "floorArea": 449000.0, "raw": {"en1Imported": 3871013, "en1Generated": 0, "en1Exported": 0, "eui": 8.62140979955457, "scope1": 337.9, "scope2Location": 696.78234, "scope2Market": 684.9, "scope3": 264741.1, "wt1": 3056792, "wt2": 0, "ws1": 0.652}, "cert": {"bc11": null, "bc12": "LEED O+M Silver", "bc2": null}, "energyStarScore": 80, "twelveMonthDataComplete": false, "energyStarEligible": false, "dataCoverage": 0.581, "confidenceTier": "Missing", "dataSource": "Tenant self-report", "lastUpdated": "2026-06-13", "metrics": {"ghg": {"unit": "mtCO2e", "direction": "Lower is better", "baselineValue": 1369, "baselineYear": 2019, "currentValue": 1034.68234, "targetValue": 821.4, "targetYear": 2030, "progressPct": 0.610514353542732, "varianceVsTarget": 213.28234, "sheetStatus": "At Risk", "p": 0.610514, "band": "At Risk"}, "eui": {"unit": "kWh/sq ft", "direction": "Lower is better", "baselineValue": 11.7, "baselineYear": 2019, "currentValue": 8.62140979955457, "targetValue": 9.36, "targetYear": 2030, "progressPct": 1.31563683779719, "varianceVsTarget": -0.738590200445433, "sheetStatus": "Target Met", "p": 1.0, "band": "Target Met"}, "water": {"unit": "gal", "direction": "Lower is better", "baselineValue": 3950076.8, "baselineYear": 2019, "currentValue": 3056792.0, "targetValue": 3357565.28, "targetYear": 2030, "progressPct": 1.50762435808843, "varianceVsTarget": -300773.28, "sheetStatus": "Target Met", "p": 1.0, "band": "Target Met"}, "waste": {"unit": "%", "direction": "Higher is better", "baselineValue": 0.528, "baselineYear": 2023, "currentValue": 0.652, "targetValue": 0.75, "targetYear": 2028, "progressPct": 0.558558558558559, "varianceVsTarget": -0.098, "sheetStatus": "At Risk", "p": 0.869333, "band": "On Track"}, "energyStar": {"unit": "1-100", "direction": "Higher is better", "baselineValue": 65, "baselineYear": 2023, "currentValue": 80.0, "targetValue": 75.0, "targetYear": 2028, "progressPct": 1.5, "varianceVsTarget": 5, "sheetStatus": "Target Met", "p": 1.0, "band": "Target Met"}, "coverage": {"unit": "%", "direction": "Higher is better", "baselineValue": 0.493, "baselineYear": 2023, "currentValue": 0.581, "targetValue": 0.75, "targetYear": 2026, "progressPct": 0.342412451361868, "varianceVsTarget": -0.169, "sheetStatus": "Off Track", "p": 0.774667, "band": "On Track"}}, "compliance": {"ll97Applicable": "Yes", "currentEmissions": 1034.68234, "limit2024": 2285.41, "overCap2024": -1250.72766, "fine2024": 0, "limit2030": 1414.35, "overCap2030": -379.66766, "fine2030": 0, "ll84FilingStatus": "Filed", "ll84NextDeadline": "2027-05-01", "daysToDeadline": 265, "nonFilingPenaltyRate": 224500, "otherLaws": "LL84, LL87 (audit due 2027), LL88, LL33", "status2024": "Compliant", "status2030": "Compliant"}}}, {"type": "Feature", "geometry": {"type": "Point", "coordinates": [-73.69363, 42.72459]}, "properties": {"id": "NY-020", "name": "Central New York Distribution Center", "floors": 1, "address": "5020 Assembly Dr", "city": "Troy", "state": "NY", "zip": "12180", "propertyType": "Cold Storage", "floorArea": 574000.0, "raw": {"en1Imported": 7825689, "en1Generated": 0, "en1Exported": 0, "eui": 13.6336045296167, "scope1": 273.3, "scope2Location": 1408.62402, "scope2Market": 1123.4, "scope3": 598053.4, "wt1": 3869463, "wt2": 0, "ws1": 0.574}, "cert": {"bc11": null, "bc12": "LEED O+M Gold", "bc2": null}, "energyStarScore": 57, "twelveMonthDataComplete": true, "energyStarEligible": false, "dataCoverage": 0.925, "confidenceTier": "Verified", "dataSource": "Estimate - prior year carried forward", "lastUpdated": "2026-07-28", "metrics": {"ghg": {"unit": "mtCO2e", "direction": "Lower is better", "baselineValue": 2134.4, "baselineYear": 2019, "currentValue": 1681.92402, "targetValue": 1280.64, "targetYear": 2030, "progressPct": 0.529980298913043, "varianceVsTarget": 401.28402, "sheetStatus": "At Risk", "p": 0.52998, "band": "At Risk"}, "eui": {"unit": "kWh/sq ft", "direction": "Lower is better", "baselineValue": 16.7, "baselineYear": 2019, "currentValue": 13.6336045296167, "targetValue": 13.36, "targetYear": 2030, "progressPct": 0.918082476162657, "varianceVsTarget": 0.273604529616724, "sheetStatus": "On Track", "p": 0.918082, "band": "On Track"}, "water": {"unit": "gal", "direction": "Lower is better", "baselineValue": 5220856.2, "baselineYear": 2019, "currentValue": 3869463.0, "targetValue": 4437727.77, "targetYear": 2030, "progressPct": 1.72563419770114, "varianceVsTarget": -568264.770000001, "sheetStatus": "Target Met", "p": 1.0, "band": "Target Met"}, "waste": {"unit": "%", "direction": "Higher is better", "baselineValue": 0.364, "baselineYear": 2023, "currentValue": 0.574, "targetValue": 0.75, "targetYear": 2028, "progressPct": 0.544041450777202, "varianceVsTarget": -0.176, "sheetStatus": "At Risk", "p": 0.765333, "band": "On Track"}, "energyStar": {"unit": "1-100", "direction": "Higher is better", "baselineValue": 45, "baselineYear": 2023, "currentValue": 57.0, "targetValue": 75.0, "targetYear": 2028, "progressPct": 0.4, "varianceVsTarget": -18, "sheetStatus": "At Risk", "p": 0.76, "band": "On Track"}, "coverage": {"unit": "%", "direction": "Higher is better", "baselineValue": 0.638, "baselineYear": 2023, "currentValue": 0.925, "targetValue": 0.75, "targetYear": 2026, "progressPct": 2.5625, "varianceVsTarget": 0.175, "sheetStatus": "Target Met", "p": 1.0, "band": "Target Met"}}, "compliance": {"ll97Applicable": "Yes", "currentEmissions": 1681.92402, "limit2024": 1681.82, "overCap2024": 0.104020000000219, "fine2024": 27.8773600000586, "limit2030": 1044.68, "overCap2030": 637.24402, "fine2030": 170781.39736, "ll84FilingStatus": "Filed", "ll84NextDeadline": "2027-05-01", "daysToDeadline": 265, "nonFilingPenaltyRate": 287000, "otherLaws": "LL84, LL88, LL33", "status2024": "At Risk", "status2030": "Non-Compliant"}}}, {"type": "Feature", "geometry": {"type": "Point", "coordinates": [-76.16349, 43.03804]}, "properties": {"id": "NY-021", "name": "Genesee Valley Logistics Hub", "floors": 3, "address": "5379 Shipping Ln", "city": "Syracuse", "state": "NY", "zip": "13204", "propertyType": "Flex Industrial", "floorArea": 531000.0, "raw": {"en1Imported": 8048067, "en1Generated": 0, "en1Exported": 0, "eui": 15.1564350282486, "scope1": 44.2, "scope2Location": 1448.65206, "scope2Market": 1364.9, "scope3": 479109.8, "wt1": 2116834, "wt2": 0, "ws1": 0.576}, "cert": {"bc11": null, "bc12": null, "bc2": "ENERGY STAR Certified 2025"}, "energyStarScore": 89, "twelveMonthDataComplete": true, "energyStarEligible": true, "dataCoverage": 0.69, "confidenceTier": "Verified", "dataSource": "Utility API feed", "lastUpdated": "2026-01-17", "metrics": {"ghg": {"unit": "mtCO2e", "direction": "Lower is better", "baselineValue": 2154, "baselineYear": 2019, "currentValue": 1492.85206, "targetValue": 1292.4, "targetYear": 2030, "progressPct": 0.767349048282265, "varianceVsTarget": 200.45206, "sheetStatus": "On Track", "p": 0.767349, "band": "On Track"}, "eui": {"unit": "kWh/sq ft", "direction": "Lower is better", "baselineValue": 20, "baselineYear": 2019, "currentValue": 15.1564350282486, "targetValue": 16.0, "targetYear": 2030, "progressPct": 1.21089124293785, "varianceVsTarget": -0.843564971751412, "sheetStatus": "Target Met", "p": 1.0, "band": "Target Met"}, "water": {"unit": "gal", "direction": "Lower is better", "baselineValue": 2472887.2, "baselineYear": 2019, "currentValue": 2116834.0, "targetValue": 2101954.12, "targetYear": 2030, "progressPct": 0.959885270949682, "varianceVsTarget": 14879.8799999999, "sheetStatus": "On Track", "p": 0.959885, "band": "On Track"}, "waste": {"unit": "%", "direction": "Higher is better", "baselineValue": 0.389, "baselineYear": 2023, "currentValue": 0.576, "targetValue": 0.75, "targetYear": 2028, "progressPct": 0.518005540166205, "varianceVsTarget": -0.174, "sheetStatus": "At Risk", "p": 0.768, "band": "On Track"}, "energyStar": {"unit": "1-100", "direction": "Higher is better", "baselineValue": 59.4, "baselineYear": 2023, "currentValue": 89.0, "targetValue": 75.0, "targetYear": 2028, "progressPct": 1.8974358974359, "varianceVsTarget": 14, "sheetStatus": "Target Met", "p": 1.0, "band": "Target Met"}, "coverage": {"unit": "%", "direction": "Higher is better", "baselineValue": 0.48, "baselineYear": 2023, "currentValue": 0.69, "targetValue": 0.75, "targetYear": 2026, "progressPct": 0.777777777777778, "varianceVsTarget": -0.0600000000000001, "sheetStatus": "On Track", "p": 0.92, "band": "On Track"}}, "compliance": {"ll97Applicable": "Yes", "currentEmissions": 1492.85206, "limit2024": 1492.11, "overCap2024": 0.742060000000265, "fine2024": 198.872080000071, "limit2030": 923.94, "overCap2030": 568.91206, "fine2030": 152468.43208, "ll84FilingStatus": "Filed", "ll84NextDeadline": "2027-05-01", "daysToDeadline": 265, "nonFilingPenaltyRate": 265500, "otherLaws": "LL84, LL88, LL33", "status2024": "At Risk", "status2030": "Non-Compliant"}}}, {"type": "Feature", "geometry": {"type": "Point", "coordinates": [-77.67754, 43.16799]}, "properties": {"id": "NY-022", "name": "Queen City Industrial Park - Bldg 1", "floors": 1, "address": "7884 Dock St", "city": "Rochester", "state": "NY", "zip": "14606", "propertyType": "Light Industrial", "floorArea": 680000.0, "raw": {"en1Imported": 9385478, "en1Generated": 0, "en1Exported": 0, "eui": 13.8021735294118, "scope1": 452.6, "scope2Location": 1689.38604, "scope2Market": 1376.2, "scope3": 466107.5, "wt1": 2521365, "wt2": 0, "ws1": 0.184}, "cert": {"bc11": null, "bc12": "LEED O+M Gold", "bc2": null}, "energyStarScore": 82, "twelveMonthDataComplete": true, "energyStarEligible": true, "dataCoverage": 0.629, "confidenceTier": "Verified", "dataSource": "Utility API feed", "lastUpdated": "2026-05-17", "metrics": {"ghg": {"unit": "mtCO2e", "direction": "Lower is better", "baselineValue": 2493.2, "baselineYear": 2019, "currentValue": 2141.98604, "targetValue": 1495.92, "targetYear": 2030, "progressPct": 0.352171867479544, "varianceVsTarget": 646.06604, "sheetStatus": "Off Track", "p": 0.352172, "band": "Off Track"}, "eui": {"unit": "kWh/sq ft", "direction": "Lower is better", "baselineValue": 18, "baselineYear": 2019, "currentValue": 13.8021735294118, "targetValue": 14.4, "targetYear": 2030, "progressPct": 1.16606290849673, "varianceVsTarget": -0.597826470588236, "sheetStatus": "Target Met", "p": 1.0, "band": "Target Met"}, "water": {"unit": "gal", "direction": "Lower is better", "baselineValue": 3430185, "baselineYear": 2019, "currentValue": 2521365.0, "targetValue": 2915657.25, "targetYear": 2030, "progressPct": 1.76631872624946, "varianceVsTarget": -394292.25, "sheetStatus": "Target Met", "p": 1.0, "band": "Target Met"}, "waste": {"unit": "%", "direction": "Higher is better", "baselineValue": 0.121, "baselineYear": 2023, "currentValue": 0.184, "targetValue": 0.75, "targetYear": 2028, "progressPct": 0.100158982511924, "varianceVsTarget": -0.566, "sheetStatus": "Off Track", "p": 0.245333, "band": "Off Track"}, "energyStar": {"unit": "1-100", "direction": "Higher is better", "baselineValue": 54.9, "baselineYear": 2023, "currentValue": 82.0, "targetValue": 75.0, "targetYear": 2028, "progressPct": 1.34825870646766, "varianceVsTarget": 7, "sheetStatus": "Target Met", "p": 1.0, "band": "Target Met"}, "coverage": {"unit": "%", "direction": "Higher is better", "baselineValue": 0.362, "baselineYear": 2023, "currentValue": 0.629, "targetValue": 0.75, "targetYear": 2026, "progressPct": 0.688144329896907, "varianceVsTarget": -0.121, "sheetStatus": "At Risk", "p": 0.838667, "band": "On Track"}}, "compliance": {"ll97Applicable": "Yes", "currentEmissions": 2141.98604, "limit2024": 2189.6, "overCap2024": -47.6139600000001, "fine2024": 0, "limit2030": 1360, "overCap2030": 781.98604, "fine2030": 209572.25872, "ll84FilingStatus": "Filed - Late", "ll84NextDeadline": "2027-05-01", "daysToDeadline": 265, "nonFilingPenaltyRate": 340000, "otherLaws": "LL84, LL88, LL33", "status2024": "Compliant", "status2030": "Non-Compliant"}}}, {"type": "Feature", "geometry": {"type": "Point", "coordinates": [-78.82791, 42.87907]}, "properties": {"id": "NY-023", "name": "Cheektowaga Gateway Fulfillment Center", "floors": 1, "address": "2088 Pier Industrial Rd", "city": "Buffalo", "state": "NY", "zip": "14206", "propertyType": "Logistics/Cross-dock", "floorArea": 522000.0, "raw": {"en1Imported": 8057511, "en1Generated": 0, "en1Exported": 0, "eui": 15.4358448275862, "scope1": 490.9, "scope2Location": 1450.35198, "scope2Market": 1323, "scope3": 375112.6, "wt1": 4651020, "wt2": 0, "ws1": 0.453}, "cert": {"bc11": "LEED BD+C Silver", "bc12": null, "bc2": "ENERGY STAR Certified 2025"}, "energyStarScore": 66, "twelveMonthDataComplete": false, "energyStarEligible": false, "dataCoverage": 0.938, "confidenceTier": "Verified", "dataSource": "Landlord submeter", "lastUpdated": "2026-07-18", "metrics": {"ghg": {"unit": "mtCO2e", "direction": "Lower is better", "baselineValue": 2732.4, "baselineYear": 2019, "currentValue": 1941.25198, "targetValue": 1639.44, "targetYear": 2030, "progressPct": 0.723858164983165, "varianceVsTarget": 301.81198, "sheetStatus": "At Risk", "p": 0.723858, "band": "At Risk"}, "eui": {"unit": "kWh/sq ft", "direction": "Lower is better", "baselineValue": 21.8, "baselineYear": 2019, "currentValue": 15.4358448275862, "targetValue": 17.44, "targetYear": 2030, "progressPct": 1.4596686175261, "varianceVsTarget": -2.00415517241379, "sheetStatus": "Target Met", "p": 1.0, "band": "Target Met"}, "water": {"unit": "gal", "direction": "Lower is better", "baselineValue": 5406170, "baselineYear": 2019, "currentValue": 4651020.0, "targetValue": 4595244.5, "targetYear": 2030, "progressPct": 0.9312199456, "varianceVsTarget": 55775.5, "sheetStatus": "On Track", "p": 0.93122, "band": "On Track"}, "waste": {"unit": "%", "direction": "Higher is better", "baselineValue": 0.369, "baselineYear": 2023, "currentValue": 0.453, "targetValue": 0.75, "targetYear": 2028, "progressPct": 0.220472440944882, "varianceVsTarget": -0.297, "sheetStatus": "Off Track", "p": 0.604, "band": "At Risk"}, "energyStar": {"unit": "1-100", "direction": "Higher is better", "baselineValue": 38.4, "baselineYear": 2023, "currentValue": 66.0, "targetValue": 75.0, "targetYear": 2028, "progressPct": 0.754098360655738, "varianceVsTarget": -9, "sheetStatus": "On Track", "p": 0.88, "band": "On Track"}, "coverage": {"unit": "%", "direction": "Higher is better", "baselineValue": 0.545, "baselineYear": 2023, "currentValue": 0.938, "targetValue": 0.75, "targetYear": 2026, "progressPct": 1.91707317073171, "varianceVsTarget": 0.188, "sheetStatus": "Target Met", "p": 1.0, "band": "Target Met"}}, "compliance": {"ll97Applicable": "Yes", "currentEmissions": 1941.25198, "limit2024": 1941.84, "overCap2024": -0.588020000000142, "fine2024": 0, "limit2030": 1205.82, "overCap2030": 735.43198, "fine2030": 197095.77064, "ll84FilingStatus": "Not Filed", "ll84NextDeadline": "2027-05-01", "daysToDeadline": 265, "nonFilingPenaltyRate": 261000, "otherLaws": "LL84, LL87 (audit due 2029), LL88, LL33", "status2024": "Compliant", "status2030": "Non-Compliant"}}}, {"type": "Feature", "geometry": {"type": "Point", "coordinates": [-78.74421, 42.91093]}, "properties": {"id": "NY-024", "name": "Mohawk Corridor Cross-Dock Terminal", "floors": 1, "address": "8640 Manufacturing Dr", "city": "Cheektowaga", "state": "NY", "zip": "14225", "propertyType": "Warehouse/Distribution", "floorArea": 551000.0, "raw": {"en1Imported": 5005706, "en1Generated": 0, "en1Exported": 0, "eui": 9.08476588021779, "scope1": 207.8, "scope2Location": 901.02708, "scope2Market": 602.1, "scope3": 262344.7, "wt1": 1635708, "wt2": 170264, "ws1": 0.632}, "cert": {"bc11": null, "bc12": "LEED O+M Gold", "bc2": null}, "energyStarScore": 67, "twelveMonthDataComplete": true, "energyStarEligible": false, "dataCoverage": 0.699, "confidenceTier": "Verified", "dataSource": "Landlord submeter", "lastUpdated": "2026-07-23", "metrics": {"ghg": {"unit": "mtCO2e", "direction": "Lower is better", "baselineValue": 1371.5, "baselineYear": 2019, "currentValue": 1108.82708, "targetValue": 822.9, "targetYear": 2030, "progressPct": 0.478805905942399, "varianceVsTarget": 285.92708, "sheetStatus": "At Risk", "p": 0.478806, "band": "At Risk"}, "eui": {"unit": "kWh/sq ft", "direction": "Lower is better", "baselineValue": 12.4, "baselineYear": 2019, "currentValue": 9.08476588021779, "targetValue": 9.92, "targetYear": 2030, "progressPct": 1.33678795152509, "varianceVsTarget": -0.835234119782216, "sheetStatus": "Target Met", "p": 1.0, "band": "Target Met"}, "water": {"unit": "gal", "direction": "Lower is better", "baselineValue": 2368388.7, "baselineYear": 2019, "currentValue": 1635708.0, "targetValue": 2013130.395, "targetYear": 2030, "progressPct": 2.062388661118, "varianceVsTarget": -377422.395, "sheetStatus": "Target Met", "p": 1.0, "band": "Target Met"}, "waste": {"unit": "%", "direction": "Higher is better", "baselineValue": 0.529, "baselineYear": 2023, "currentValue": 0.632, "targetValue": 0.75, "targetYear": 2028, "progressPct": 0.46606334841629, "varianceVsTarget": -0.118, "sheetStatus": "At Risk", "p": 0.842667, "band": "On Track"}, "energyStar": {"unit": "1-100", "direction": "Higher is better", "baselineValue": 49.6, "baselineYear": 2023, "currentValue": 67.0, "targetValue": 75.0, "targetYear": 2028, "progressPct": 0.68503937007874, "varianceVsTarget": -8, "sheetStatus": "At Risk", "p": 0.893333, "band": "On Track"}, "coverage": {"unit": "%", "direction": "Higher is better", "baselineValue": 0.456, "baselineYear": 2023, "currentValue": 0.699, "targetValue": 0.75, "targetYear": 2026, "progressPct": 0.826530612244898, "varianceVsTarget": -0.051, "sheetStatus": "On Track", "p": 0.932, "band": "On Track"}}, "compliance": {"ll97Applicable": "Yes", "currentEmissions": 1108.82708, "limit2024": 1135.06, "overCap2024": -26.2329200000002, "fine2024": 0, "limit2030": 705.28, "overCap2030": 403.54708, "fine2030": 108150.61744, "ll84FilingStatus": "Filed", "ll84NextDeadline": "2027-05-01", "daysToDeadline": 265, "nonFilingPenaltyRate": 275500, "otherLaws": "LL84, LL88, LL33", "status2024": "Compliant", "status2030": "Non-Compliant"}}}, {"type": "Feature", "geometry": {"type": "Point", "coordinates": [-75.24231, 43.10982]}, "properties": {"id": "NY-025", "name": "Empire Corridor Cold Storage Facility", "floors": 2, "address": "6481 Supply Chain Blvd", "city": "Utica", "state": "NY", "zip": "13501", "propertyType": "Manufacturing", "floorArea": 653000.0, "raw": {"en1Imported": 13274963, "en1Generated": 0, "en1Exported": 0, "eui": 20.3291929555896, "scope1": 310, "scope2Location": 2389.49334, "scope2Market": 2349.3, "scope3": 1016390.9, "wt1": 2670958, "wt2": 0, "ws1": 0.751}, "cert": {"bc11": "LEED BD+C Certified", "bc12": null, "bc2": null}, "energyStarScore": 65, "twelveMonthDataComplete": true, "energyStarEligible": false, "dataCoverage": 0.649, "confidenceTier": "Verified", "dataSource": "Estimate - prior year carried forward", "lastUpdated": "2026-03-22", "metrics": {"ghg": {"unit": "mtCO2e", "direction": "Lower is better", "baselineValue": 3221.2, "baselineYear": 2019, "currentValue": 2699.49334, "targetValue": 1932.72, "targetYear": 2030, "progressPct": 0.404900859927977, "varianceVsTarget": 766.77334, "sheetStatus": "At Risk", "p": 0.404901, "band": "At Risk"}, "eui": {"unit": "kWh/sq ft", "direction": "Lower is better", "baselineValue": 25.1, "baselineYear": 2019, "currentValue": 20.3291929555896, "targetValue": 20.08, "targetYear": 2030, "progressPct": 0.950359969006059, "varianceVsTarget": 0.249192955589585, "sheetStatus": "On Track", "p": 0.95036, "band": "On Track"}, "water": {"unit": "gal", "direction": "Lower is better", "baselineValue": 3730199.7, "baselineYear": 2019, "currentValue": 2670958.0, "targetValue": 3170669.745, "targetYear": 2030, "progressPct": 1.89309203293682, "varianceVsTarget": -499711.745, "sheetStatus": "Target Met", "p": 1.0, "band": "Target Met"}, "waste": {"unit": "%", "direction": "Higher is better", "baselineValue": 0.447, "baselineYear": 2023, "currentValue": 0.751, "targetValue": 0.75, "targetYear": 2028, "progressPct": 1.003300330033, "varianceVsTarget": 0.001, "sheetStatus": "Target Met", "p": 1.0, "band": "Target Met"}, "energyStar": {"unit": "1-100", "direction": "Higher is better", "baselineValue": 37, "baselineYear": 2023, "currentValue": 65.0, "targetValue": 75.0, "targetYear": 2028, "progressPct": 0.736842105263158, "varianceVsTarget": -10, "sheetStatus": "At Risk", "p": 0.866667, "band": "On Track"}, "coverage": {"unit": "%", "direction": "Higher is better", "baselineValue": 0.408, "baselineYear": 2023, "currentValue": 0.649, "targetValue": 0.75, "targetYear": 2026, "progressPct": 0.7046783625731, "varianceVsTarget": -0.101, "sheetStatus": "At Risk", "p": 0.865333, "band": "On Track"}}, "compliance": {"ll97Applicable": "Yes", "currentEmissions": 2699.49334, "limit2024": 3323.77, "overCap2024": -624.27666, "fine2024": 0, "limit2030": 2056.95, "overCap2030": 642.54334, "fine2030": 172201.61512, "ll84FilingStatus": "Filed", "ll84NextDeadline": "2027-05-01", "daysToDeadline": 265, "nonFilingPenaltyRate": 326500, "otherLaws": "LL84, LL88, LL33", "status2024": "Compliant", "status2030": "Non-Compliant"}}}, {"type": "Feature", "geometry": {"type": "Point", "coordinates": [-73.98415, 40.69558]}, "properties": {"id": "NY-026", "name": "Fulton Street Mixed-Use Tower", "floors": 8, "address": "745 Fulton St", "city": "Downtown Brooklyn", "state": "NY", "zip": "11201", "propertyType": "Mixed-Use Residential/Commercial", "floorArea": 447000.0, "raw": {"en1Imported": 9150414, "en1Generated": 0, "en1Exported": 0, "eui": 20.4707248322148, "scope1": 119.4, "scope2Location": 1647.07452, "scope2Market": 1281.9, "scope3": 459453.5, "wt1": 8239104, "wt2": 0, "ws1": 0.444}, "cert": {"bc11": null, "bc12": null, "bc2": null}, "energyStarScore": 52, "twelveMonthDataComplete": true, "energyStarEligible": false, "dataCoverage": 0.482, "confidenceTier": "Verified", "dataSource": "Estimate - prior year carried forward", "lastUpdated": "2026-07-27", "metrics": {"ghg": {"unit": "mtCO2e", "direction": "Lower is better", "baselineValue": 2436.3, "baselineYear": 2019, "currentValue": 1766.47452, "targetValue": 1461.78, "targetYear": 2030, "progressPct": 0.687338874522842, "varianceVsTarget": 304.69452, "sheetStatus": "At Risk", "p": 0.687339, "band": "At Risk"}, "eui": {"unit": "kWh/sq ft", "direction": "Lower is better", "baselineValue": 29.5, "baselineYear": 2019, "currentValue": 20.4707248322148, "targetValue": 23.6, "targetYear": 2030, "progressPct": 1.53038562165852, "varianceVsTarget": -3.12927516778524, "sheetStatus": "Target Met", "p": 1.0, "band": "Target Met"}, "water": {"unit": "gal", "direction": "Lower is better", "baselineValue": 4770331.4, "baselineYear": 2019, "currentValue": 8239104.0, "targetValue": 4054781.69, "targetYear": 2030, "progressPct": -4.847703174, "varianceVsTarget": 4184322.31, "sheetStatus": "Off Track", "p": 0.0, "band": "Off Track"}, "waste": {"unit": "%", "direction": "Higher is better", "baselineValue": 0.36, "baselineYear": 2023, "currentValue": 0.444, "targetValue": 0.75, "targetYear": 2028, "progressPct": 0.215384615384615, "varianceVsTarget": -0.306, "sheetStatus": "Off Track", "p": 0.592, "band": "At Risk"}, "energyStar": {"unit": "1-100", "direction": "Higher is better", "baselineValue": 39.6, "baselineYear": 2023, "currentValue": 52.0, "targetValue": 75.0, "targetYear": 2028, "progressPct": 0.350282485875706, "varianceVsTarget": -23, "sheetStatus": "Off Track", "p": 0.693333, "band": "At Risk"}, "coverage": {"unit": "%", "direction": "Higher is better", "baselineValue": 0.39, "baselineYear": 2023, "currentValue": 0.482, "targetValue": 0.75, "targetYear": 2026, "progressPct": 0.255555555555556, "varianceVsTarget": -0.268, "sheetStatus": "Off Track", "p": 0.642667, "band": "At Risk"}}, "compliance": {"ll97Applicable": "Yes", "currentEmissions": 1766.47452, "limit2024": 1832.7, "overCap2024": -66.2254799999998, "fine2024": 0, "limit2030": 1135.38, "overCap2030": 631.09452, "fine2030": 169133.33136, "ll84FilingStatus": "Filed", "ll84NextDeadline": "2027-05-01", "daysToDeadline": 265, "nonFilingPenaltyRate": 223500, "otherLaws": "LL84, LL88, LL33", "status2024": "Compliant", "status2030": "Non-Compliant"}}}, {"type": "Feature", "geometry": {"type": "Point", "coordinates": [-73.76447, 41.03572]}, "properties": {"id": "NY-027", "name": "White Plains Residential-Commercial Complex", "floors": 12, "address": "1 Renaissance Sq", "city": "White Plains", "state": "NY", "zip": "10601", "propertyType": "Mixed-Use Residential/Commercial", "floorArea": 391000.0, "raw": {"en1Imported": 9186286, "en1Generated": 0, "en1Exported": 0, "eui": 23.4943375959079, "scope1": 125.2, "scope2Location": 1653.53148, "scope2Market": 1119.3, "scope3": 441520, "wt1": 2226346, "wt2": 0, "ws1": 0.5}, "cert": {"bc11": null, "bc12": "ENERGY STAR Certified", "bc2": "ENERGY STAR Certified 2025"}, "energyStarScore": 57, "twelveMonthDataComplete": true, "energyStarEligible": false, "dataCoverage": 0.836, "confidenceTier": "Verified", "dataSource": "Estimate - prior year carried forward", "lastUpdated": "2026-02-23", "metrics": {"ghg": {"unit": "mtCO2e", "direction": "Lower is better", "baselineValue": 2389.6, "baselineYear": 2019, "currentValue": 1778.73148, "targetValue": 1433.76, "targetYear": 2030, "progressPct": 0.639090768329427, "varianceVsTarget": 344.97148, "sheetStatus": "At Risk", "p": 0.639091, "band": "At Risk"}, "eui": {"unit": "kWh/sq ft", "direction": "Lower is better", "baselineValue": 30, "baselineYear": 2019, "currentValue": 23.4943375959079, "targetValue": 24.0, "targetYear": 2030, "progressPct": 1.08427706734868, "varianceVsTarget": -0.505662404092071, "sheetStatus": "Target Met", "p": 1.0, "band": "Target Met"}, "water": {"unit": "gal", "direction": "Lower is better", "baselineValue": 2890420.1, "baselineYear": 2019, "currentValue": 2226346.0, "targetValue": 2456857.085, "targetYear": 2030, "progressPct": 1.53166685585485, "varianceVsTarget": -230511.085, "sheetStatus": "Target Met", "p": 1.0, "band": "Target Met"}, "waste": {"unit": "%", "direction": "Higher is better", "baselineValue": 0.324, "baselineYear": 2023, "currentValue": 0.5, "targetValue": 0.75, "targetYear": 2028, "progressPct": 0.413145539906103, "varianceVsTarget": -0.25, "sheetStatus": "At Risk", "p": 0.666667, "band": "At Risk"}, "energyStar": {"unit": "1-100", "direction": "Higher is better", "baselineValue": 32, "baselineYear": 2023, "currentValue": 57.0, "targetValue": 75.0, "targetYear": 2028, "progressPct": 0.581395348837209, "varianceVsTarget": -18, "sheetStatus": "At Risk", "p": 0.76, "band": "On Track"}, "coverage": {"unit": "%", "direction": "Higher is better", "baselineValue": 0.528, "baselineYear": 2023, "currentValue": 0.836, "targetValue": 0.75, "targetYear": 2026, "progressPct": 1.38738738738739, "varianceVsTarget": 0.086, "sheetStatus": "Target Met", "p": 1.0, "band": "Target Met"}}, "compliance": {"ll97Applicable": "Yes", "currentEmissions": 1778.73148, "limit2024": 1603.1, "overCap2024": 175.63148, "fine2024": 47069.23664, "limit2030": 993.14, "overCap2030": 785.59148, "fine2030": 210538.51664, "ll84FilingStatus": "Filed", "ll84NextDeadline": "2027-05-01", "daysToDeadline": 265, "nonFilingPenaltyRate": 195500, "otherLaws": "LL84, LL87 (audit due 2029), LL88, LL33", "status2024": "Non-Compliant", "status2030": "Non-Compliant"}}}, {"type": "Feature", "geometry": {"type": "Point", "coordinates": [-78.87862, 42.88344]}, "properties": {"id": "NY-028", "name": "Pearl Street Mixed-Use Tower", "floors": 18, "address": "300 Pearl St", "city": "Downtown Buffalo", "state": "NY", "zip": "14202", "propertyType": "Mixed-Use Residential/Commercial", "floorArea": 364000.0, "raw": {"en1Imported": 7433245, "en1Generated": 0, "en1Exported": 0, "eui": 20.4210027472527, "scope1": 108.7, "scope2Location": 1337.9841, "scope2Market": 1092.2, "scope3": 462910.7, "wt1": 1483500, "wt2": 0, "ws1": 0.311}, "cert": {"bc11": null, "bc12": "LEED O+M Silver", "bc2": null}, "energyStarScore": 88, "twelveMonthDataComplete": false, "energyStarEligible": false, "dataCoverage": 0.575, "confidenceTier": "Verified", "dataSource": "Tenant self-report", "lastUpdated": "2026-06-28", "metrics": {"ghg": {"unit": "mtCO2e", "direction": "Lower is better", "baselineValue": 1841.4, "baselineYear": 2019, "currentValue": 1446.6841, "targetValue": 1104.84, "targetYear": 2030, "progressPct": 0.535891033995873, "varianceVsTarget": 341.8441, "sheetStatus": "At Risk", "p": 0.535891, "band": "At Risk"}, "eui": {"unit": "kWh/sq ft", "direction": "Lower is better", "baselineValue": 28.7, "baselineYear": 2019, "currentValue": 20.4210027472527, "targetValue": 22.96, "targetYear": 2030, "progressPct": 1.44233401615806, "varianceVsTarget": -2.53899725274725, "sheetStatus": "Target Met", "p": 1.0, "band": "Target Met"}, "water": {"unit": "gal", "direction": "Lower is better", "baselineValue": 1978063, "baselineYear": 2019, "currentValue": 1483500.0, "targetValue": 1681353.55, "targetYear": 2030, "progressPct": 1.66682591336407, "varianceVsTarget": -197853.55, "sheetStatus": "Target Met", "p": 1.0, "band": "Target Met"}, "waste": {"unit": "%", "direction": "Higher is better", "baselineValue": 0.183, "baselineYear": 2023, "currentValue": 0.311, "targetValue": 0.75, "targetYear": 2028, "progressPct": 0.225749559082892, "varianceVsTarget": -0.439, "sheetStatus": "Off Track", "p": 0.414667, "band": "At Risk"}, "energyStar": {"unit": "1-100", "direction": "Higher is better", "baselineValue": 55, "baselineYear": 2023, "currentValue": 88.0, "targetValue": 75.0, "targetYear": 2028, "progressPct": 1.65, "varianceVsTarget": 13, "sheetStatus": "Target Met", "p": 1.0, "band": "Target Met"}, "coverage": {"unit": "%", "direction": "Higher is better", "baselineValue": 0.324, "baselineYear": 2023, "currentValue": 0.575, "targetValue": 0.75, "targetYear": 2026, "progressPct": 0.589201877934272, "varianceVsTarget": -0.175, "sheetStatus": "At Risk", "p": 0.766667, "band": "On Track"}}, "compliance": {"ll97Applicable": "Yes", "currentEmissions": 1446.6841, "limit2024": 1492.4, "overCap2024": -45.7158999999999, "fine2024": 0, "limit2030": 924.56, "overCap2030": 522.1241, "fine2030": 139929.2588, "ll84FilingStatus": "Filed - Late", "ll84NextDeadline": "2027-05-01", "daysToDeadline": 265, "nonFilingPenaltyRate": 182000, "otherLaws": "LL84, LL87 (audit due 2027), LL88, LL33", "status2024": "Compliant", "status2030": "Non-Compliant"}}}, {"type": "Feature", "geometry": {"type": "Point", "coordinates": [-77.60874, 43.15866]}, "properties": {"id": "NY-029", "name": "East Main Riverside Mixed-Use Development", "floors": 22, "address": "28 East Main St", "city": "Downtown Rochester", "state": "NY", "zip": "14604", "propertyType": "Mixed-Use Residential/Commercial", "floorArea": 405000.0, "raw": {"en1Imported": 9889675, "en1Generated": 0, "en1Exported": 0, "eui": 24.418950617284, "scope1": 312.2, "scope2Location": 1780.1415, "scope2Market": 1584.4, "scope3": 715834.4, "wt1": 6881760, "wt2": 271138, "ws1": 0.464}, "cert": {"bc11": "LEED BD+C Silver", "bc12": "LEED O+M Silver", "bc2": null}, "energyStarScore": 79, "twelveMonthDataComplete": true, "energyStarEligible": true, "dataCoverage": 0.754, "confidenceTier": "Estimated", "dataSource": "Estimate - prior year carried forward", "lastUpdated": "2026-07-14", "metrics": {"ghg": {"unit": "mtCO2e", "direction": "Lower is better", "baselineValue": 2530.5, "baselineYear": 2019, "currentValue": 2092.3415, "targetValue": 1518.3, "targetYear": 2030, "progressPct": 0.432877395771587, "varianceVsTarget": 574.0415, "sheetStatus": "At Risk", "p": 0.432877, "band": "At Risk"}, "eui": {"unit": "kWh/sq ft", "direction": "Lower is better", "baselineValue": 28.3, "baselineYear": 2019, "currentValue": 24.418950617284, "targetValue": 22.64, "targetYear": 2030, "progressPct": 0.685697770797889, "varianceVsTarget": 1.77895061728395, "sheetStatus": "At Risk", "p": 0.685698, "band": "At Risk"}, "water": {"unit": "gal", "direction": "Lower is better", "baselineValue": 6625797.1, "baselineYear": 2019, "currentValue": 6881760.0, "targetValue": 5631927.535, "targetYear": 2030, "progressPct": -0.2575417429, "varianceVsTarget": 1249832.465, "sheetStatus": "Off Track", "p": 0.0, "band": "Off Track"}, "waste": {"unit": "%", "direction": "Higher is better", "baselineValue": 0.32, "baselineYear": 2023, "currentValue": 0.464, "targetValue": 0.75, "targetYear": 2028, "progressPct": 0.334883720930233, "varianceVsTarget": -0.286, "sheetStatus": "Off Track", "p": 0.618667, "band": "At Risk"}, "energyStar": {"unit": "1-100", "direction": "Higher is better", "baselineValue": 49.5, "baselineYear": 2023, "currentValue": 79.0, "targetValue": 75.0, "targetYear": 2028, "progressPct": 1.15686274509804, "varianceVsTarget": 4, "sheetStatus": "Target Met", "p": 1.0, "band": "Target Met"}, "coverage": {"unit": "%", "direction": "Higher is better", "baselineValue": 0.618, "baselineYear": 2023, "currentValue": 0.754, "targetValue": 0.75, "targetYear": 2026, "progressPct": 1.03030303030303, "varianceVsTarget": 0.004, "sheetStatus": "Target Met", "p": 1.0, "band": "Target Met"}}, "compliance": {"ll97Applicable": "Yes", "currentEmissions": 2092.3415, "limit2024": 1660.5, "overCap2024": 431.8415, "fine2024": 115733.522, "limit2030": 1028.7, "overCap2030": 1063.6415, "fine2030": 285055.922, "ll84FilingStatus": "Not Filed", "ll84NextDeadline": "2027-05-01", "daysToDeadline": 265, "nonFilingPenaltyRate": 202500, "otherLaws": "LL84, LL88, LL33", "status2024": "Non-Compliant", "status2030": "Non-Compliant"}}}, {"type": "Feature", "geometry": {"type": "Point", "coordinates": [-73.75385, 42.65403]}, "properties": {"id": "NY-030", "name": "State Street Capital Mixed-Use Tower", "floors": 25, "address": "60 State St", "city": "Downtown Albany", "state": "NY", "zip": "12207", "propertyType": "Mixed-Use Residential/Commercial", "floorArea": 252000.0, "raw": {"en1Imported": 4878144, "en1Generated": 0, "en1Exported": 0, "eui": 19.3577142857143, "scope1": 155.8, "scope2Location": 878.06592, "scope2Market": 858.8, "scope3": 377702.1, "wt1": 2791101, "wt2": 0, "ws1": 0.277}, "cert": {"bc11": "LEED BD+C Gold", "bc12": "LEED O+M Gold", "bc2": null}, "energyStarScore": 52, "twelveMonthDataComplete": true, "energyStarEligible": false, "dataCoverage": 0.658, "confidenceTier": "Verified", "dataSource": "Tenant self-report", "lastUpdated": "2026-01-18", "metrics": {"ghg": {"unit": "mtCO2e", "direction": "Lower is better", "baselineValue": 1398.8, "baselineYear": 2019, "currentValue": 1033.86592, "targetValue": 839.28, "targetYear": 2030, "progressPct": 0.65222705175865, "varianceVsTarget": 194.58592, "sheetStatus": "At Risk", "p": 0.652227, "band": "At Risk"}, "eui": {"unit": "kWh/sq ft", "direction": "Lower is better", "baselineValue": 25.3, "baselineYear": 2019, "currentValue": 19.3577142857143, "targetValue": 20.24, "targetYear": 2030, "progressPct": 1.17436476566911, "varianceVsTarget": -0.882285714285715, "sheetStatus": "Target Met", "p": 1.0, "band": "Target Met"}, "water": {"unit": "gal", "direction": "Lower is better", "baselineValue": 3647661.3, "baselineYear": 2019, "currentValue": 2791101.0, "targetValue": 3100512.105, "targetYear": 2030, "progressPct": 1.56549677460459, "varianceVsTarget": -309411.105, "sheetStatus": "Target Met", "p": 1.0, "band": "Target Met"}, "waste": {"unit": "%", "direction": "Higher is better", "baselineValue": 0.212, "baselineYear": 2023, "currentValue": 0.277, "targetValue": 0.75, "targetYear": 2028, "progressPct": 0.120817843866171, "varianceVsTarget": -0.473, "sheetStatus": "Off Track", "p": 0.369333, "band": "Off Track"}, "energyStar": {"unit": "1-100", "direction": "Higher is better", "baselineValue": 36, "baselineYear": 2023, "currentValue": 52.0, "targetValue": 75.0, "targetYear": 2028, "progressPct": 0.41025641025641, "varianceVsTarget": -23, "sheetStatus": "At Risk", "p": 0.693333, "band": "At Risk"}, "coverage": {"unit": "%", "direction": "Higher is better", "baselineValue": 0.533, "baselineYear": 2023, "currentValue": 0.658, "targetValue": 0.75, "targetYear": 2026, "progressPct": 0.576036866359447, "varianceVsTarget": -0.092, "sheetStatus": "At Risk", "p": 0.877333, "band": "On Track"}}, "compliance": {"ll97Applicable": "Yes", "currentEmissions": 1033.86592, "limit2024": 1033.2, "overCap2024": 0.665919999999915, "fine2024": 178.466559999977, "limit2030": 640.08, "overCap2030": 393.78592, "fine2030": 105534.62656, "ll84FilingStatus": "Filed", "ll84NextDeadline": "2027-05-01", "daysToDeadline": 265, "nonFilingPenaltyRate": 126000, "otherLaws": "LL84, LL87 (audit due 2029), LL88, LL33", "status2024": "At Risk", "status2030": "Non-Compliant"}}}]}